index,sido,idx,name,address,latitude,longitude,input_wastes
651,강원특별자치도,973,양양군청소년수련관,강원특별자치도 양양군 양양읍 복개길 23-2,38.07299599,128.617678,"['캔', '투명 페트']"
79,강원특별자치도,121,박수근광장,강원특별자치도 양구군 양구읍 상리 206-64,38.10424288,127.987807,"['캔', '투명 페트']"
411,강원특별자치도,708,도계작은영화관,강원특별자치도 삼척시 도계읍 전두리 58-8,37.22963994,129.0431054,"['캔', '투명 페트']"
412,강원특별자치도,709,사직동 공영주차장,강원특별자치도 삼척시 사직동 302-1,37.43399872,129.1683949,"['캔', '투명 페트']"
429,강원특별자치도,730,효자2동행정복지센터,강원특별자치도 춘천시 효자동 148-31,37.87228604,127.7364338,['투명 페트']
431,강원특별자치도,732,교동행정복지센터,강원특별자치도 춘천시 교동 96-2,37.88029618,127.7362947,['투명 페트']
432,강원특별자치도,733,후평1동행정복지센터,강원특별자치도 춘천시 후평동 713-5,37.8859966,127.745275,['투명 페트']
433,강원특별자치도,734,후평2동행정복지센터,강원특별자치도 춘천시 후평동 792-1,37.87747256,127.7507898,['투명 페트']
434,강원특별자치도,735,동면행정복지센터,강원특별자치도 춘천시 동면 지내리 209-26,37.90997676,127.781427,['투명 페트']
472,강원특별자치도,778,속초시청,강원특별자치도 속초시 중앙로 183,38.2074391,128.5919887,['투명 페트']
473,강원특별자치도,779,노학동행정복지센터,강원특별자치도 속초시 동해대로 4245,38.19708179,128.5763159,['투명 페트']
80,강원특별자치도,122,원주시청 어린이집 맞은편 야외화장실 옆,강원특별자치도 원주시 무실동 1,37.33976658,127.91878,"['캔', '투명 페트']"
474,강원특별자치도,780,속초시립도서관,강원특별자치도 속초시 조양로 89,38.18669022,128.5908863,['투명 페트']
476,강원특별자치도,782,속초해수욕장제2공영주차장,강원특별자치도 속초시 조양동 1450-4,38.1896508,128.6028695,['투명 페트']
62,강원특별자치도,95,남양동행정복지센터,강원특별자치도 삼척시 남양길 11,37.44256446,129.168466,"['캔', '투명 페트']"
61,강원특별자치도,94,성내동행정복지센터,강원특별자치도 삼척시 대학로 57,37.4462153,129.1629288,"['캔', '투명 페트']"
60,강원특별자치도,93,홈플러스삼척점,강원특별자치도 삼척시 중앙로 258 홈플러스,37.4464341,129.1683278,"['캔', '투명 페트']"
59,강원특별자치도,92,삼척시청별관주차장,강원특별자치도 삼척시 교동 695,37.4489282,129.1642743,"['캔', '투명 페트']"
58,강원특별자치도,91,정라동행정복지센터,강원특별자치도 삼척시 새천년도로 16,37.4360724,129.1845269,"['캔', '투명 페트']"
57,강원특별자치도,90,평생학습관,강원특별자치도 삼척시 청석로3길 16-41,37.4490586,129.178091,"['캔', '투명 페트']"
56,강원특별자치도,89,신북읍행정복지센터,강원특별자치도 춘천시 신북읍 율문길 75,37.9258827,127.7462326,"['캔', '투명 페트']"
55,강원특별자치도,88,강남동행정복지관,강원특별자치도 춘천시 온의동 6-37,37.8680384,127.7193904,"['캔', '투명 페트']"
487,강원특별자치도,793,국토정중앙면사무소 옆,강원특별자치도 양구군 국토정중앙면 용하리 416-1,38.10832567,128.0345935,['투명 페트']
475,강원특별자치도,781,엑스포제3공영주차장,강원특별자치도 속초시 조양동 1559-4,38.19126065,128.5851504,['투명 페트']
52,강원특별자치도,84,석사공원,강원특별자치도 춘천시 석사동 731,37.8665881,127.7544093,"['캔', '투명 페트']"
81,강원특별자치도,123,원주시립중앙도서관,강원특별자치도 원주시 단구동 1703,37.32609821,127.9535356,"['캔', '투명 페트']"
83,강원특별자치도,125,기후변화홍보관,강원특별자치도 원주시 행구동 1029,37.34261439,127.9966044,"['캔', '투명 페트']"
183,강원특별자치도,255,구름다리,강원특별자치도 삼척시 교동 728-2,37.44691969,129.1715503,"['캔', '투명 페트']"
184,강원특별자치도,256,봉황공원,강원특별자치도 삼척시 남양동 339-2,37.44145786,129.1701044,"['캔', '투명 페트']"
226,강원특별자치도,300,삼척 문화공원,강원특별자치도 삼척시 성남동 199-5,37.43822775,129.1588266,"['캔', '투명 페트']"
227,강원특별자치도,301,도계공영주차장,강원특별자치도 삼척시 도계읍 강원남부로 1488,37.2373474,129.0437388,"['캔', '투명 페트']"
248,강원특별자치도,523,하나로마트 갈마로점 입구,강원특별자치도 홍천군 홍천읍 갈마곡리 23-33,37.69954917,127.9031242,"['캔', '투명 페트']"
249,강원특별자치도,524,홍천군 종합사회복지관 입구,강원특별자치도 홍천군 홍천읍 진리 10-35,37.69156488,127.8915339,"['캔', '투명 페트']"
250,강원특별자치도,525,연봉도서관 입구,강원특별자치도 홍천군 홍천읍 연봉리 200,37.68205481,127.8747643,['투명 페트']
272,강원특별자치도,552,동면사무소,강원특별자치도 양구군 동면 금강산로 1693,38.20232928,128.0434973,"['캔', '투명 페트']"
273,강원특별자치도,553,국토정중앙면사무소 헬스장,강원특별자치도 양구군 국토정중앙면 삼팔선로 15,38.10825488,128.0347037,"['캔', '투명 페트']"
278,강원특별자치도,563,사내청소년문화의집,강원특별자치도 화천군 사내면 문화마을1길 44,38.06951546,127.5236594,['투명 페트']
82,강원특별자치도,124,젊음의광장,강원특별자치도 원주시 단구로 170,37.33541814,127.9466348,"['캔', '투명 페트']"
279,강원특별자치도,564,간동면사무소,강원특별자치도 화천군 간동면 유촌리 614-1,38.05522568,127.7896,['투명 페트']
348,강원특별자치도,638,태백문화예술회관,강원특별자치도 태백시 고원로 203,37.17210116,128.9884927,"['캔', '투명 페트']"
349,강원특별자치도,639,태백종합운동장,강원특별자치도 태백시 연화산길 10,37.13668144,129.0014931,"['캔', '투명 페트']"
350,강원특별자치도,640,쇠바우골탄광문화장터,강원특별자치도 태백시 동태백로 434,37.11505569,129.0372764,"['캔', '투명 페트']"
93,강원특별자치도,138,퇴계동행정복지센터,강원특별자치도 춘천시 퇴계로 46,37.86448988,127.7262006,"['캔', '투명 페트']"
92,강원특별자치도,137,근화동행정복지센터,강원특별자치도 춘천시 영서로 2487,37.88071482,127.7121788,"['캔', '투명 페트']"
91,강원특별자치도,136,소양동행정복지센터,강원특별자치도 춘천시 금강로 17,37.88224016,127.7247153,"['캔', '투명 페트']"
90,강원특별자치도,135,후평3동행정복지센터,강원특별자치도 춘천시 후만로 83,37.87651828,127.7538517,"['캔', '투명 페트']"
89,강원특별자치도,134,석사동행정복지센터,강원특별자치도 춘천시 후석로 48,37.85852767,127.7423541,"['캔', '투명 페트']"
409,강원특별자치도,706,근덕면 행정복지센터,강원특별자치도 삼척시 근덕면 삼척로 3639,37.37946261,129.2258767,"['캔', '투명 페트']"
84,강원특별자치도,127,자원순환교실,강원특별자치도 삼척시 미로면 강원남부로 3920,37.41128484,129.1068337,"['캔', '투명 페트']"
347,강원특별자치도,637,태백산소드림도서관,강원특별자치도 태백시 황지동 274-7,37.17969844,128.9849792,"['캔', '투명 페트']"
51,강원특별자치도,83,한림대,강원특별자치도 춘천시 한림대학길 1,37.886586,127.7401306,"['캔', '투명 페트']"
410,강원특별자치도,707,원덕읍 행정복지센터,강원특별자치도 삼척시 원덕읍 호산리 244-3,37.17703813,129.3353235,"['캔', '투명 페트']"
580,강원특별자치도,889,원주의료기기테크노밸리,강원특별자치도 원주시 지정면 기업도시로 200,37.37186611,127.8740056,['투명 페트']
596,강원특별자치도,906,인제상남면행정복지센터,강원특별자치도 인제군 상남면 상남로38번길 10,37.87406169,128.2598993,['투명 페트']
595,강원특별자치도,905,현5리경로당,강원특별자치도 인제군 기린면 현리 774-3,37.94767576,128.3150375,['투명 페트']
594,강원특별자치도,904,인제북면행정복지센터,강원특별자치도 인제군 북면 금강로 55,38.12458403,128.2040799,['투명 페트']
634,강원특별자치도,952,DMZ시네마,강원특별자치도 화천군 상서면 산양리 737,38.20981668,127.6627754,"['캔', '투명 페트']"
593,강원특별자치도,903,서화면행정복지센터,강원특별자치도 인제군 서화면 천도리 702-5,38.2181027,128.2079433,['투명 페트']
579,강원특별자치도,888,원주문막생활체육시설,강원특별자치도 원주시 문막읍 문막리 750,37.31176617,127.8235629,['투명 페트']
24,강원특별자치도,42,동내면사무소,강원특별자치도 춘천시 동내면 동내로 78,37.8478551,127.7611148,"['캔', '투명 페트']"
25,강원특별자치도,43,효자1동주민센터,강원특별자치도 춘천시 효자상길 9,37.8721719,127.7275698,"['캔', '투명 페트']"
26,강원특별자치도,44,춘천시청,강원특별자치도 춘천시 시청길 11,37.88056753,127.729611,"['캔', '투명 페트']"
27,강원특별자치도,45,신사우동주민센터,강원특별자치도 춘천시 사우4길 28,37.9059423,127.7278715,"['캔', '투명 페트']"
28,강원특별자치도,46,약사명동주민센터,강원특별자치도 춘천시 망대길 9,37.8765662,127.7248152,"['캔', '투명 페트']"
578,강원특별자치도,887,상지대학교 동악관,강원특별자치도 원주시 상지대길 83,37.37000434,127.927401,['투명 페트']
633,강원특별자치도,951,풍산1리경로당,강원특별자치도 화천군 화천읍 풍산리 761-6,38.1460026,127.7411108,['투명 페트']
577,강원특별자치도,886,태장2동 행정복지센터,강원특별자치도 원주시 흥양로50번길 1,37.38240227,127.9528678,['투명 페트']
576,강원특별자치도,885,원주동부복합체육센터,강원특별자치도 원주시 건강로 73,37.32035887,127.9897389,['투명 페트']
632,강원특별자치도,950,용신밥상 옆,강원특별자치도 화천군 화천읍 신읍리 589-10,38.11589087,127.6995101,['투명 페트']
527,강원특별자치도,834,구문소동행정복지센터,강원특별자치도 태백시 장성동 99-42,37.10011171,129.0220268,['투명 페트']
536,강원특별자치도,843,철원 서면사무소,강원특별자치도 철원군 서면 신술2길 40,38.16468132,127.4157858,['투명 페트']
528,강원특별자치도,835,장성동주민센터,강원특별자치도 태백시 장성동 170-142,37.10045421,129.0085053,['투명 페트']
529,강원특별자치도,836,상장동행정복지센터,강원특별자치도 태백시 태백로 1182,37.15338707,128.9909034,['투명 페트']
530,강원특별자치도,837,통리장공영주차장,강원특별자치도 태백시 통동 산 51-13,37.16818292,129.0365718,['투명 페트']
532,강원특별자치도,839,화촌면행정복지센터,강원특별자치도 홍천군 화촌면 성산로 143,37.77101096,127.9670973,"['캔', '투명 페트']"
531,강원특별자치도,838,홍천남면행정복지센터,강원특별자치도 홍천군 남면 양덕원리 349-17,37.61794715,127.7673085,"['캔', '투명 페트']"
533,강원특별자치도,840,동송읍행정복지센터,강원특별자치도 철원군 동송읍 이평로 141,38.2076467,127.2084393,['투명 페트']
534,강원특별자치도,841,철원읍행정복지센터,강원특별자치도 철원군 철원읍 화지로11번길 40,38.2158795,127.2142178,['투명 페트']
535,강원특별자치도,842,철원군청,강원특별자치도 철원군 갈말읍 삼부연로 51,38.14662989,127.3125093,['투명 페트']
513,강원특별자치도,820,현북면사무소,강원특별자치도 양양군 현북면 하조대1길 41-8,38.01906521,128.7232311,"['캔', '투명 페트']"
195,경기도,268,충훈어린이공원,경기도 안양시 만안구 석수로178번길 28,37.40637849,126.8971173,"['캔', '투명 페트']"
197,경기도,270,안양2동 행정복지센터,경기도 안양시 만안구 안양동 842-2,37.40530771,126.9179608,['투명 페트']
222,경기도,296,수노을공원 주차장 입구,경기도 화성시 새솔동 83,37.28368061,126.817673,"['캔', '투명 페트']"
194,경기도,267,꽃메산어린이공원,경기도 안양시 만안구 석수동 610-10,37.40761791,126.899282,"['캔', '투명 페트']"
221,경기도,295,송린이음터 도서관,경기도 화성시 수노을2로 150,37.27744375,126.8224987,"['캔', '투명 페트']"
196,경기도,269,친목마을,경기도 안양시 만안구 박달동 920-1,37.40711396,126.8851441,"['캔', '투명 페트']"
223,경기도,297,비봉체육공원 화성야구장,경기도 화성시 새솔동 167,37.26304606,126.8456667,"['캔', '투명 페트']"
218,경기도,292,수노을공원 공용화장실,경기도 화성시 꽃내음1길 30,37.28226368,126.8161851,"['캔', '투명 페트']"
198,경기도,271,금강펜테리움,경기도 안양시 동안구 학의로 282,37.40116964,126.9699662,"['캔', '투명 페트']"
219,경기도,293,해오름공원,경기도 화성시 새솔동 15,37.28551054,126.8211672,"['캔', '투명 페트']"
199,경기도,272,센트럴타워,경기도 안양시 만안구 안양동 1403,37.39591365,126.9306083,"['캔', '투명 페트']"
200,경기도,274,만안구청,경기도 안양시 만안구 안양로 128,37.38623564,126.9327231,"['캔', '투명 페트']"
201,경기도,275,꽃동산공원,경기도 안양시 만안구 박달동 94-114,37.40134267,126.9109741,"['캔', '투명 페트']"
217,경기도,291,수노을공원 농구장,경기도 화성시 새솔동 97,37.2807652,126.8173164,"['캔', '투명 페트']"
220,경기도,294,새솔동 행정복지센터,경기도 화성시 새솔동 98,37.28117275,126.8186685,"['캔', '투명 페트']"
216,경기도,290,가온공원,경기도 화성시 새솔동 114,37.27801917,126.8201842,"['캔', '투명 페트']"
498,경기도,804,관양1동행정복지센터,경기도 안양시 동안구 관평로358번길 46,37.40631425,126.9614563,"['캔', '투명 페트']"
192,경기도,265,노송공원,경기도 안양시 만안구 안양동 521-1,37.38631102,126.9306284,"['캔', '투명 페트']"
163,경기도,219,롯데마트 시흥배곧점 1층,경기도 시흥시 서울대학로278번길 67,37.36878541,126.7314632,['투명 페트']
164,경기도,220,롯데마트 영통점 지하2층,경기도 수원시 영통구 봉영로 1579,37.25292507,127.0718022,['투명 페트']
165,경기도,221,롯데마트 안산점 1층,경기도 안산시 상록구 항가울로 422,37.31801042,126.8465021,['투명 페트']
166,경기도,222,롯데마트 상록점 1층,경기도 안산시 상록구 반석로 20,37.296612,126.862076,['투명 페트']
167,경기도,223,롯데마트 광교점 지하1층,경기도 수원시 영통구 센트럴타운로 85,37.29071358,127.0494047,['투명 페트']
174,경기도,230,NS홈쇼핑,경기도 성남시 분당구 판교로228번길 15,37.40181683,127.1016082,"['캔', '투명 페트']"
175,경기도,231,판교환경생태학습원,경기도 성남시 분당구 대왕판교로645번길 21,37.39959119,127.1038176,"['캔', '투명 페트']"
182,경기도,254,설봉공원,경기도 이천시 관고동 356,37.2789632,127.4280371,"['캔', '투명 페트']"
193,경기도,266,종합운동장 수영장,경기도 안양시 동안구 평촌대로 389,37.40652134,126.9491447,"['캔', '투명 페트']"
648,경기도,966,송부동행정복지센터,경기도 군포시 송부로74번길 3-32,37.3162788,126.9236956,['투명 페트']
185,경기도,257,호계3동 행정복지센터,경기도 안양시 동안구 호계동 764-5,37.36766621,126.9587949,"['캔', '투명 페트']"
224,경기도,298,비봉실내체육관,경기도 화성시 비봉면 삼화리 4-8,37.25723734,126.8497536,"['캔', '투명 페트']"
186,경기도,258,농수산물센터 서문,경기도 안양시 동안구 흥안대로 313,37.38182456,126.969494,"['캔', '투명 페트']"
187,경기도,259,농수산물센터 동문,경기도 안양시 동안구 흥안대로 313,37.38184062,126.9706231,"['캔', '투명 페트']"
188,경기도,260,동안구청,경기도 안양시 동안구 비산동 1111,37.39191194,126.9507102,"['캔', '투명 페트']"
189,경기도,261,아르떼웨딩홀,경기도 안양시 동안구 관양동 1753,37.3964828,126.9644682,"['캔', '투명 페트']"
190,경기도,263,안양9동 꿈나눔터,경기도 안양시 만안구 병목안로142번길 8,37.39120695,126.9090353,"['캔', '투명 페트']"
191,경기도,264,갈뫼어린이공원,경기도 안양시 만안구 석수동 295-1,37.41062755,126.9078569,"['캔', '투명 페트']"
647,경기도,965,대야동행정복지센터,경기도 군포시 대야2로 139,37.33025727,126.915515,['투명 페트']
646,경기도,964,군포2동행정복지센터,경기도 군포시 고산로 263,37.34644725,126.9430909,['투명 페트']
635,경기도,953,금정역7번출구,경기도 군포시 산본동 100,37.37265107,126.942453,['투명 페트']
229,경기도,304,미사1동 행정복지센터,경기도 하남시 미사강변남로 59,37.56031593,127.188808,['투명 페트']
602,경기도,912,북한산국립공원 오봉탐방지원센터,경기도 양주시 장흥면 울대리 산 69-2,37.71227749,126.9820441,['투명 페트']
403,경기도,698,수지구청,경기도 용인시 수지구 풍덕천동 791,37.32261972,127.0978742,['투명 페트']
404,경기도,699,동백2동행정복지센터,경기도 용인시 기흥구 동백중앙로 214,37.27252646,127.1514635,['투명 페트']
408,경기도,705,백마고등학교(포인트적립불가),경기도 고양시 일산동구 백석로 155,37.65206208,126.7938657,"['캔', '투명 페트']"
162,경기도,218,롯데마트 오산점 1층,경기도 오산시 경기대로 271,37.14942053,127.073028,['투명 페트']
414,경기도,712,성남동행정복지센터,경기도 성남시 중원구 광명로 91,37.43516366,127.1390705,['투명 페트']
420,경기도,721,덕풍2동행정복지센터,경기도 하남시 덕풍동 693,37.54233107,127.1979252,['투명 페트']
424,경기도,725,덕풍동 도시재생 현장지원센터,경기도 하남시 하남대로833번길 28,37.54159703,127.204373,['투명 페트']
547,경기도,854,회천3동행정복지센터,경기도 양주시 덕정동 206-6,37.83760775,127.0686077,['투명 페트']
546,경기도,853,양주2동행정복지센터,경기도 양주시 고읍로 77,37.79684089,127.08054,['투명 페트']
526,경기도,833,흥선동 에코리움,경기도 의정부시 가능동 678,37.74690312,127.0327798,['투명 페트']
518,경기도,825,청목초등학교(포인트 적립 불가),경기도 화성시 동탄순환대로21길 10,37.1959423,127.1175284,"['캔', '투명 페트']"
509,경기도,816,신성중학교(포인트 적립 불가),경기도 안양시 만안구 소곡로 93,37.38446832,126.9197874,"['캔', '투명 페트']"
507,경기도,814,송산사지근린공원,경기도 의정부시 민락동 878,37.74851433,127.1097932,['투명 페트']
495,경기도,801,양주시 스마트그린포트,경기도 양주시 옥정동 975-1,37.8374901,127.0895191,['투명 페트']
603,경기도,914,관곡어린이공원(제47호),경기도 용인시 기흥구 구갈동 407-1,37.27491868,127.1108353,['투명 페트']
389,경기도,683,중앙예닮학교,경기도 용인시 수지구 포은대로 91-19,37.30240646,127.0705013,"['캔', '투명 페트']"
604,경기도,915,양주시남면행정복지센터,경기도 양주시 남면 개나리17길 6,37.89807018,126.9768657,['투명 페트']
605,경기도,916,백석읍행정복지센터,경기도 양주시 백석읍 중앙로223번길 46,37.7947052,126.9853537,['투명 페트']
230,경기도,305,수내1동 행정복지센터,경기도 성남시 분당구 내정로173번길 21,37.37536315,127.1182001,['투명 페트']
239,경기도,514,오산근린공원,경기도 오산시 오산천로 265,37.15547534,127.0698018,"['캔', '투명 페트']"
240,경기도,515,오산대 맞은편 탄천 화장실 옆,경기도 오산시 청학동 33-4,37.15259796,127.0630956,"['캔', '투명 페트']"
246,경기도,521,회천2동 주민센터 입구,경기도 양주시 덕계동 467-8,37.82167384,127.0466269,['투명 페트']
247,경기도,522,광적면 행정복지센터 근처 쉼터,경기도 양주시 광적면 가납리 848-5,37.82499074,126.9839023,['투명 페트']
644,경기도,962,군포시민체육광장,경기도 군포시 산본로 267,37.35518439,126.9374576,['투명 페트']
643,경기도,961,재궁동 행정복지센터,경기도 군포시 금정동 850-4,37.35845377,126.9391904,['투명 페트']
645,경기도,963,1.2대야송부행정복지센터,경기도 군포시 군포로 531,37.35346744,126.9455856,['투명 페트']
638,경기도,956,궁내동행정복지센터,경기도 군포시 산본동 1148-7,37.35963979,126.9219867,['투명 페트']
637,경기도,955,군포시다함께돌봄센터 광정동점,경기도 군포시 광정로 104,37.36190291,126.9279812,['투명 페트']
636,경기도,954,군포시청,경기도 군포시 청백리길 6,37.36122048,126.9359767,['투명 페트']
496,경기도,802,양주1동행정복지센터,경기도 양주시 외미로64번길 45,37.77336087,127.043932,['투명 페트']
280,경기도,565,신갈동주민자치센터,경기도 용인시 기흥구 신갈로58번길 9,37.2722463,127.1068034,['투명 페트']
324,경기도,613,성남시여성복지회관,경기도 성남시 수정구 산성대로475번길 7,37.45403834,127.1598955,['투명 페트']
326,경기도,615,성남종합운동장,경기도 성남시 중원구 제일로 60,37.43260963,127.1387748,['투명 페트']
336,경기도,625,학운공원,경기도 안양시 동안구 비산동 1100,37.39897905,126.9474501,"['캔', '투명 페트']"
261,경기도,539,Circle(SK가스 충전소),경기도 성남시 분당구 대왕판교로 131,37.35514184,127.1012292,"['캔', '투명 페트']"
158,경기도,214,롯데마트 이천점 정문,경기도 이천시 안흥동 474,37.27419453,127.4546106,['투명 페트']
325,경기도,614,신흥3동행정복지센터,경기도 성남시 수정구 공원로349번길 8,37.4434522,127.1489681,['투명 페트']
22,경기도,40,이수흥공원,경기도 이천시 창전동,37.2823774,127.4420097,"['캔', '투명 페트']"
109,경기도,156,중앙공원 음수대,경기도 안양시 동안구 평촌동 895,37.38946413,126.9584498,"['캔', '투명 페트']"
110,경기도,157,중앙공원 화장실,경기도 안양시 동안구 평촌동 895,37.38921153,126.9575748,"['캔', '투명 페트']"
111,경기도,158,동안청소년수련관,경기도 안양시 동안구 비산동 1126,37.39167242,126.9489402,"['캔', '투명 페트']"
112,경기도,159,평촌미관광장,경기도 안양시 동안구 관양동 1608-1,37.39421422,126.9636025,"['캔', '투명 페트']"
113,경기도,160,종합운동장 빙상장 입구,경기도 안양시 동안구 평촌대로 389,37.40423489,126.9488837,"['캔', '투명 페트']"
114,경기도,161,안양시청,경기도 안양시 동안구 관양동 1590,37.39446647,126.9567955,"['캔', '투명 페트']"
115,경기도,162,어린이교통공원,경기도 안양시 동안구 호계동 1112,37.37987183,126.9625029,"['캔', '투명 페트']"
116,경기도,163,석수역,경기도 안양시 만안구 석수동 424-1,37.43361468,126.9021453,"['캔', '투명 페트']"
117,경기도,164,신기어린이공원,경기도 안양시 동안구 동안로 26,37.38194923,126.9574265,"['캔', '투명 페트']"
118,경기도,165,관악역,경기도 안양시 만안구 석수동 104-240,37.41905758,126.9091457,"['캔', '투명 페트']"
119,경기도,166,안양3동 행정복지센터,경기도 안양시 만안구 안양동 1195-1,37.39602501,126.9148766,"['캔', '투명 페트']"
120,경기도,167,명학공원,경기도 안양시 만안구 안양동 572,37.38412484,126.9324484,"['캔', '투명 페트']"
121,경기도,168,박달2동 행정복지센터,경기도 안양시 만안구 박달동 141-2,37.40216897,126.9047048,"['캔', '투명 페트']"
122,경기도,169,만안종합사회복지관,경기도 안양시 만안구 박달로 547-1,37.40278171,126.9135447,"['캔', '투명 페트']"
123,경기도,170,병목안캠핑장,경기도 안양시 만안구 병목안로247번길 37,37.38255351,126.9101862,"['캔', '투명 페트']"
124,경기도,171,호계3동 공영주차장,경기도 안양시 동안구 호계동 966-46,37.36874182,126.9557067,"['캔', '투명 페트']"
125,경기도,172,냉천어린이공원,경기도 안양시 만안구 안양동 627-311,37.39504796,126.9222239,"['캔', '투명 페트']"
147,경기도,198,세븐일레븐 판교도서관점,경기도 성남시 분당구 판교동 613-1,37.39118656,127.0905395,['투명 페트']
72,경기도,111,군포국민체육센터,경기도 군포시 군포로 339,37.33859957,126.9365788,"['캔', '투명 페트']"
108,경기도,155,중앙공원 관리사무소,경기도 안양시 동안구 평촌동 895,37.39055526,126.9610578,"['캔', '투명 페트']"
21,경기도,39,고양관광정보센터,경기도 고양시 일산동구 중앙로 1271-1,37.65948105,126.772692,"['캔', '투명 페트']"
150,경기도,201,세븐일레븐 광명여성회관점,경기도 광명시 충현로4번길 10,37.43521689,126.8803414,['투명 페트']
107,경기도,154,중앙공원 인라인스케이트장,경기도 안양시 동안구 시민대로 지하 238,37.39208134,126.9577144,"['캔', '투명 페트']"
415,경상남도,715,함양읍행정복지센터,경상남도 함양군 함양읍 운림리 40-2,35.51966926,127.72649,['투명 페트']
416,경상남도,716,남지읍행정복지센터,경상남도 창녕군 남지읍 낙동로 483,35.38917674,128.4771094,['투명 페트']
417,경상남도,717,창녕읍행정복지센터,경상남도 창녕군 창녕읍 종로 38-9,35.54124326,128.5004679,['투명 페트']
99,경상남도,146,성산스포츠파크,경상남도 창원시 성산구 중앙동 1,35.23435568,128.6668468,"['캔', '투명 페트']"
520,경상남도,827,청안공원,경상남도 창원시 진해구 용원동 1207-1,35.10346616,128.8065982,['투명 페트']
510,경상남도,817,합천영상테마파크,경상남도 합천군 용주면 합천호수로 757,35.54824121,128.0724458,['투명 페트']
521,경상남도,828,창원의집,경상남도 창원시 의창구 사림동 70,35.24412589,128.6807814,['투명 페트']
522,경상남도,829,진동종합복지타운,경상남도 창원시 마산합포구 진동면 신서촌로 15,35.11597893,128.4843962,['투명 페트']
609,경상남도,922,창녕교육지원청 통합지원센터,경상남도 창녕군 창녕읍 교하리 5-3,35.53393397,128.4999679,"['캔', '투명 페트']"
101,경상남도,148,마산야구장,경상남도 창원시 마산합포구 산호동 31-2,35.22052278,128.5825267,"['캔', '투명 페트']"
381,경상남도,674,밀양문화체육회관,경상남도 밀양시 삼문동 4-122,35.48821779,128.7571704,"['캔', '투명 페트']"
53,경상남도,85,연지공원,경상남도 김해시 금관대로1368번길 9,35.2446931,128.8698703,"['캔', '투명 페트']"
382,경상남도,675,밀양시립도서관,경상남도 밀양시 중앙로 265,35.48678439,128.7550402,['투명 페트']
100,경상남도,147,의창스포츠센터,경상남도 창원시 의창구 도계동 467,35.25648352,128.6339318,"['캔', '투명 페트']"
385,경상남도,678,밀양파크골프장,경상남도 밀양시 삼문동 630-2,35.48227382,128.7429329,"['캔', '투명 페트']"
103,경상남도,150,진해루,경상남도 창원시 진해구 경화동 1007-15,35.14695287,128.6829555,"['캔', '투명 페트']"
583,경상남도,892,합천군민체육관,경상남도 합천군 합천읍 장수로 1,35.56160313,128.1533765,['캔']
384,경상남도,677,밀양종합사회복지관,경상남도 밀양시 삼문동 34-13,35.48336783,128.7589847,['투명 페트']
102,경상남도,149,합포스포츠센터,경상남도 창원시 마산합포구 드림베이대로 56,35.17659421,128.5674546,"['캔', '투명 페트']"
477,경상남도,783,하동읍행정복지센터,경상남도 하동군 하동읍 읍내리 1198-1,35.07186754,127.7452815,['투명 페트']
383,경상남도,676,밀양시보건소,경상남도 밀양시 삼문중앙로 41,35.48542971,128.7563247,['투명 페트']
244,경상북도,519,포은고등학교,경상북도 영천시 금호읍 성천앞길 112-53,35.94001966,128.8781323,"['캔', '투명 페트']"
599,경상북도,909,이마트 안동점,경상북도 안동시 옥동1길 2,36.55877925,128.6995173,['투명 페트']
394,경상북도,688,호명면 호반 2차 버스승강장,경상북도 예천군 호명면 산합리 1388,36.57818542,128.4812378,"['캔', '투명 페트']"
598,경상북도,908,옥동행정복지센터,경상북도 안동시 옥동 792-1,36.56142094,128.7016108,['투명 페트']
581,경상북도,890,서구동행정복지센터,경상북도 안동시 안기천로 86,36.56474062,128.7175166,['투명 페트']
601,경상북도,911,영천시종합스포츠센터,경상북도 영천시 교촌동 336-1,35.97094768,128.9230357,"['캔', '투명 페트']"
419,경상북도,720,안계면행정복지센터,경상북도 의성군 안계면 안계길 114,36.38343334,128.4396951,['투명 페트']
73,경상북도,112,김천시청,경상북도 김천시 시청1길 1,36.13988817,128.1136245,"['캔', '투명 페트']"
418,경상북도,719,"버스정류장(안계,토매 방면)",경상북도 의성군 안계면 용기리 1116-81,36.38298414,128.4405171,['투명 페트']
393,경상북도,687,대심어린이공원,경상북도 예천군 예천읍 대심리 73-5,36.64913537,128.4420601,"['캔', '투명 페트']"
214,경상북도,288,예천군 제1공영주차장,경상북도 예천군 호명면 산합리 1450,36.57598533,128.4893119,"['캔', '투명 페트']"
3,경상북도,6,형곡시립도서관,경상북도 구미시 경은로 85 구미시립도서관,36.1131072,128.3361809,"['캔', '투명 페트']"
322,경상북도,610,송천동분리수거장 1,경상북도 안동시 경동로 1375,36.54468414,128.7951558,['투명 페트']
542,경상북도,849,예천아이사랑안심케어센터,경상북도 예천군 예천읍 서본리 49-2,36.65620954,128.4507025,"['캔', '투명 페트']"
543,경상북도,850,백전천생태공원,경상북도 예천군 예천읍 백전리 447-1,36.6631343,128.4599029,"['캔', '투명 페트']"
544,경상북도,851,예천군 복합커뮤니티센터,경상북도 예천군 호명면 산합리 1124,36.57770102,128.4736121,"['캔', '투명 페트']"
141,경상북도,190,문덕8공원,경상북도 포항시 남구 오천읍 문덕리 197-1,35.9642064,129.4040408,"['캔', '투명 페트']"
140,경상북도,189,원동13어린이공원,경상북도 포항시 남구 오천읍 원리 903-4,35.96951393,129.4087211,"['캔', '투명 페트']"
139,경상북도,188,원동12어린이공원,경상북도 포항시 남구 오천읍 원리 919,35.96880707,129.4065688,"['캔', '투명 페트']"
545,경상북도,852,예천군 제2공영주차장,경상북도 예천군 호명면 산합리 1448,36.5760213,128.4911197,"['캔', '투명 페트']"
213,경상북도,287,예천읍 행정복지센터,경상북도 예천군 예천읍 서본리 1-6,36.65691695,128.4529133,"['캔', '투명 페트']"
5,경상북도,8,봉곡테마공원,경상북도 구미시 봉곡동,36.150563,128.3138658,"['캔', '투명 페트']"
7,경상북도,10,휴먼시아아파트,경상북도 의성군 의성읍 동서1길 114 상리휴먼시아,36.3501295,128.7082619,"['캔', '투명 페트']"
4,경상북도,7,선주원남동주민센터,경상북도 구미시 봉곡로 42 선주원남동사무소,36.1425881,128.3101952,"['캔', '투명 페트']"
323,경상북도,612,송천동분리수거장 2,경상북도 안동시 송천동 478-6,36.54061676,128.7972001,['투명 페트']
514,경상북도,821,북경주행정복지센터,경상북도 경주시 안강읍 안강리 346-27,35.9898097,129.227004,['투명 페트']
461,경상북도,766,경산시립박물관,경상북도 경산시 박물관로 46,35.81366186,128.7628071,['투명 페트']
6,경상북도,9,원호민원봉사실,경상북도 구미시 문장로 182,36.1496101,128.3310628,"['캔', '투명 페트']"
2,경상북도,5,상모사곡동주민센터,경상북도 구미시 상사서로 199 상모사곡동사무소,36.099713,128.3578956,"['캔', '투명 페트']"
373,경상북도,663,세화고등학교 매점,경상북도 포항시 북구 아치로 94,36.0544155,129.3520537,"['캔', '투명 페트']"
372,경상북도,662,세화고등학교 정문,경상북도 포항시 북구 우현동 318-17,36.05273827,129.3520093,"['캔', '투명 페트']"
459,경상북도,764,지좌동행정복지센터,경상북도 김천시 영남대로 1940,36.11997378,128.1424821,"['캔', '투명 페트']"
515,경상북도,822,경주시민운동장 입구,경상북도 경주시 황성공원로 30,35.85998984,129.2106278,['투명 페트']
458,경상북도,763,대곡동행정복지센터,경상북도 김천시 부곡동 1330,36.12446763,128.0891078,"['캔', '투명 페트']"
457,경상북도,762,율곡동행정복지센터,경상북도 김천시 율곡동 369,36.12151465,128.1833349,['투명 페트']
346,경상북도,636,안동시청 시의회 본관,경상북도 안동시 퇴계로 115,36.56810137,128.7301379,['투명 페트']
8,경상북도,11,의성초등학교,경상북도 의성군 의성읍 후죽리 530-1,36.3520845,128.6955267,"['캔', '투명 페트']"
460,경상북도,765,경산시립도서관,경상북도 경산시 하양읍 금락리 97,35.91315089,128.8129595,['투명 페트']
1,경상북도,4,임오동주민센터,경상북도 구미시 임은길 61 임오동사무소,36.0892718,128.3692414,"['캔', '투명 페트']"
516,경상북도,823,경주시립도서관,경상북도 경주시 원화로 431-18,35.85959427,129.2185199,['투명 페트']
181,광주광역시,253,월산4동 행정복지센터,광주광역시 남구 월산동 949,35.14641584,126.8907575,"['캔', '투명 페트']"
65,광주광역시,98,화정2동주민센터,광주광역시 서구 화운로 94 유니버시아드 힐스테이트 1단지,35.1465822,126.8821979,"['캔', '투명 페트']"
66,광주광역시,99,푸른길광장,광주광역시 남구 주월동 941-203,35.1260653,126.896671,"['캔', '투명 페트']"
335,광주광역시,624,북구종합체육관,광주광역시 북구 첨단연신로29번길 15,35.20051237,126.861467,['투명 페트']
334,광주광역시,623,전남대스포츠센터 버스승강장,광주광역시 북구 용봉동 162,35.17503136,126.9124881,['투명 페트']
241,광주광역시,516,벽산블루밍아파트 3단지 301동 앞 보도,광주광역시 북구 대자로 55,35.17594909,126.8791309,['투명 페트']
333,광주광역시,622,북구반다비체육센터,광주광역시 북구 필문대로 55,35.1642953,126.9282781,['투명 페트']
275,광주광역시,558,스트리트푸드존,광주광역시 남구 봉선동 1132-2,35.13396966,126.9061408,"['캔', '투명 페트']"
233,광주광역시,308,전남대학교 9호관,광주광역시 북구 용봉로 77,35.18100431,126.9054363,"['캔', '투명 페트']"
23,광주광역시,41,상무시민공원,광주광역시 서구 치평동 1162,35.15357094,126.8421815,"['캔', '투명 페트']"
471,광주광역시,777,오치2동행정복지센터,광주광역시 북구 오치동 861-58,35.18994629,126.900485,['투명 페트']
405,대구광역시,702,상중이동행정복지센터,대구광역시 서구 당산로 343,35.86698131,128.5461065,['투명 페트']
582,대구광역시,891,감삼동행정복지센터,대구광역시 달서구 감삼동 136-2,35.85101444,128.5423069,['투명 페트']
406,대구광역시,703,내당4동행정복지센터,대구광역시 서구 내당동 354-7,35.85892301,128.5516787,['투명 페트']
320,대구광역시,606,금정어린이공원,대구광역시 북구 태전동 974,35.9269918,128.5458587,"['캔', '투명 페트']"
321,대구광역시,607,대현어린이공원,대구광역시 북구 대현동 112-41,35.8845865,128.609958,"['캔', '투명 페트']"
319,대구광역시,605,대구 남구청,대구광역시 남구 이천로 51,35.84589958,128.5973686,"['캔', '투명 페트']"
614,대구광역시,932,비산7동 행정복지센터,대구광역시 서구 비산동 1890-2,35.88801842,128.5536277,['투명 페트']
613,대구광역시,931,내당1동 행정복지센터,대구광역시 서구 서대구로4길 35,35.86062315,128.5607811,['투명 페트']
612,대구광역시,930,평리6동 행정복지센터,대구광역시 서구 서대구로41길 41,35.87662498,128.5500198,['투명 페트']
611,대구광역시,929,평리2동 행정복지센터,대구광역시 서구 국채보상로60길 6,35.87117282,128.5635926,['투명 페트']
610,대구광역시,928,서구립 원고개도서관,대구광역시 서구 달서로43길 12,35.8819228,128.5708963,['투명 페트']
608,대구광역시,921,남산어린이공원,대구광역시 중구 남산로1길 32,35.85823249,128.5813075,['투명 페트']
607,대구광역시,920,남산2동행정복지센터,대구광역시 중구 남산동 573-1,35.86404283,128.5894851,['투명 페트']
567,대구광역시,875,경북대 버스정류장 앞,대구광역시 북구 산격동 1370-1,35.89307927,128.6101604,['투명 페트']
566,대구광역시,874,무지개어린이공원,대구광역시 북구 대학로17길 11,35.89314213,128.6086638,['투명 페트']
281,대구광역시,566,한국환경공단 대구경북환경본부,대구광역시 수성구 무학로 209,35.83052288,128.6313066,['투명 페트']
407,대구광역시,704,대구 서구청,대구광역시 서구 국채보상로 257,35.8717351,128.5588123,['투명 페트']
517,대구광역시,824,동천초등학교(포인트 적립 불가),대구광역시 수성구 상록로16길 20,35.8657073,128.6257033,"['캔', '투명 페트']"
85,대구광역시,128,군위 동부 제1호 어린이공원,대구광역시 군위군 군위읍 동부리 376-3,36.23777645,128.5707876,"['캔', '투명 페트']"
86,대구광역시,129,LH천년나무아파트,대구광역시 군위군 군위읍 동산새길 50,36.23185428,128.5688784,"['캔', '투명 페트']"
443,대구광역시,748,죽전동행정복지센터,대구광역시 달서구 죽전1길 176,35.8575013,128.5390812,['투명 페트']
444,대구광역시,749,장기동행정복지센터,대구광역시 달서구 장기동 817-3,35.84321414,128.5302137,['투명 페트']
445,대구광역시,750,본리동행정복지센터,대구광역시 달서구 본리동 110-4,35.84106675,128.5429277,['투명 페트']
446,대구광역시,751,청소년수련관 공용주차장,대구광역시 달서구 상화로 406,35.80787349,128.5584039,['투명 페트']
447,대구광역시,752,능금어린이공원,대구광역시 달서구 명덕로2길 57,35.859413,128.5710054,['투명 페트']
448,대구광역시,753,유천동행정복지센터,대구광역시 달서구 유천동 606,35.81722518,128.5141723,['투명 페트']
449,대구광역시,754,월성1동행정복지센터,대구광역시 달서구 월성동 1396-3,35.81928676,128.5227173,['투명 페트']
450,대구광역시,755,월성2동행정복지센터,대구광역시 달서구 월성동 86-3,35.83091271,128.5281405,['투명 페트']
451,대구광역시,756,달서구노인종합복지관,대구광역시 달서구 본동 804-2,35.83350397,128.5420371,['투명 페트']
452,대구광역시,757,송현2동행정복지센터,대구광역시 달서구 송현동 528-3,35.8326012,128.5454944,['투명 페트']
453,대구광역시,758,월곡역사공원,대구광역시 달서구 상인동 1530,35.81842154,128.5446165,['투명 페트']
454,대구광역시,759,상인2동행정복지센터,대구광역시 달서구 상원로 27,35.81259089,128.536192,['투명 페트']
455,대구광역시,760,도원동행정복지센터,대구광역시 달서구 한실로 53,35.80749654,128.5323519,['투명 페트']
456,대구광역시,761,두류3동행정복지센터,대구광역시 달서구 두류동 483-8,35.85358703,128.5556011,['투명 페트']
479,대구광역시,785,중동행정복지센터,대구광역시 수성구 중동 44-6,35.84728334,128.6151914,['투명 페트']
480,대구광역시,786,상동행정복지센터,대구광역시 수성구 상동 400,35.83219008,128.6156268,['투명 페트']
481,대구광역시,787,수성구립무학숲도서관,대구광역시 수성구 지산동 888-1,35.83530042,128.6306989,['투명 페트']
482,대구광역시,788,에덴테마어린이공원 ,대구광역시 수성구 지산동 1272-1,35.82145511,128.6323021,['투명 페트']
541,대구광역시,848,복현어울림쉼터,대구광역시 북구 복현동 603-2,35.89170452,128.6153984,['투명 페트']
539,대구광역시,846,신용보증기금,대구광역시 동구 신서동 1157,35.87744189,128.7280273,['투명 페트']
442,대구광역시,747,용산1동행정복지센터,대구광역시 달서구 용산로 212-7,35.85665655,128.5311418,['투명 페트']
441,대구광역시,746,용산2동행정복지센터,대구광역시 달서구 용산동 499-7,35.85854352,128.5228867,['투명 페트']
430,대구광역시,731,대구 중구 보건소,대구광역시 중구 태평로3가 174-1,35.87753887,128.583067,['투명 페트']
630,대구광역시,948,무태조야동행정복지센터,대구광역시 북구 서변동 1777,35.92134694,128.5972479,['투명 페트']
427,대구광역시,728,서문시장,대구광역시 중구 큰장로26길 45,35.86881672,128.5807733,['투명 페트']
260,대구광역시,538,진천동 행정복지센터,대구광역시 달서구 진천로9길 33,35.81228113,128.5226471,['투명 페트']
259,대구광역시,537,송현1동 행정복지센터,대구광역시 달서구 중흥로8길 41,35.8291713,128.5548283,['투명 페트']
258,대구광역시,536,성당동 행정복지센터,대구광역시 달서구 야외음악당로 38,35.84061873,128.5532201,['투명 페트']
257,대구광역시,535,이곡2동 행정복지센터,대구광역시 달서구 이곡동 1191-3,35.85575335,128.500957,['투명 페트']
428,대구광역시,729,대구 중구 재활용센터,대구광역시 중구 태평로51길 77,35.8738548,128.6092204,['투명 페트']
631,대구광역시,949,복현2동행정복지센터,대구광역시 북구 복현동 산 107-3,35.89548733,128.625559,['투명 페트']
623,대구광역시,941,강북노인복지관,대구광역시 북구 관음동 1372,35.93637381,128.5466453,['투명 페트']
624,대구광역시,942,읍내동행정복지센터,대구광역시 북구 읍내동 660-2,35.94596297,128.5504062,['투명 페트']
625,대구광역시,943,함지노인복지관,대구광역시 북구 구암동 773-1,35.94302326,128.5704842,['투명 페트']
622,대구광역시,940,태전1동행정복지센터,대구광역시 북구 태전동 255-15,35.92423342,128.5431267,['투명 페트']
627,대구광역시,945,침산3동행정복지센터,대구광역시 북구 성북로 55,35.89202208,128.5894075,['투명 페트']
628,대구광역시,946,노원동행정복지센터,대구광역시 북구 노원동2가 211,35.89024885,128.5762657,['투명 페트']
629,대구광역시,947,고성동행정복지센터,대구광역시 북구 고성로31길 21,35.88184699,128.5837008,['투명 페트']
439,대구광역시,744,이곡1동행정복지센터,대구광역시 달서구 이곡동 672-2,35.85154865,128.5107264,['투명 페트']
440,대구광역시,745,신당동행정복지센터,대구광역시 달서구 신당동 1750-1,35.85876459,128.4992232,['투명 페트']
626,대구광역시,944,침산2동행정복지센터,대구광역시 북구 침산동 5-1,35.88729356,128.5968626,['투명 페트']
97,대전광역시,143,[기부형] 대청댐 물문화관,대전광역시 대덕구 대청로 618-136,36.47443779,127.4815565,['투명 페트']
497,대전광역시,803,대전 대신고등학교(포인트 적립 불가),대전광역시 서구 오량1길 98,36.3090299,127.380845,"['캔', '투명 페트']"
378,대전광역시,668,기성동행정복지센터,대전광역시 서구 흑석1길 16,36.25581454,127.3414171,['투명 페트']
401,대전광역시,696,예정어린이공원,대전광역시 서구 내동 16-1,36.3315042,127.3783593,['투명 페트']
377,대전광역시,667,대전서구국민체육센터,대전광역시 서구 정림서로 181,36.30403902,127.362926,['투명 페트']
400,대전광역시,695,만년동행정복지센터,대전광역시 서구 만년로 19,36.36748045,127.3750792,['투명 페트']
399,대전광역시,693,마치광장,대전광역시 서구 관저동 1538,36.29763056,127.338713,['투명 페트']
468,대전광역시,773,갈마동건능골경로당,대전광역시 서구 갈마동 402-1,36.34477291,127.3715365,['투명 페트']
469,대전광역시,774,둔산1동행정복지센터,대전광역시 서구 둔산동 1402,36.3524429,127.3861477,['투명 페트']
465,대전광역시,770,비래동행정복지센터,대전광역시 대덕구 비래동 140-5,36.35501342,127.4499231,"['캔', '투명 페트']"
375,대전광역시,665,들말어린이공원,대전광역시 서구 가장동 405,36.32918011,127.3823102,['투명 페트']
374,대전광역시,664,변동주민자치문화센터,대전광역시 서구 변동 15-23,36.32978351,127.378894,['투명 페트']
379,대전광역시,669,도안동행정복지센터,대전광역시 서구 원도안로242번길 33,36.32355296,127.3466096,['투명 페트']
398,대전광역시,692,문정어린이공원,대전광역시 서구 둔산동 2008,36.34976302,127.3988427,['투명 페트']
376,대전광역시,666,도솔청소년문화의집 앞,대전광역시 서구 배재로197번길 41,36.32555259,127.3680429,['투명 페트']
572,대전광역시,880,도솔마을 어울림플랫폼,대전광역시 서구 도마동 105-10,36.31726706,127.3750278,['투명 페트']
263,대전광역시,542,가양2동행정복지센터,대전광역시 동구 흥룡로 33,36.34902784,127.4474016,['투명 페트']
133,대전광역시,182,갈마공원,대전광역시 서구 갈마동 820,36.3552646,127.3737811,['투명 페트']
287,대전광역시,572,관평재활용정거장,대전광역시 유성구 관평동 805,36.42680453,127.3884085,"['캔', '투명 페트']"
286,대전광역시,571,지족재활용정거장,대전광역시 유성구 지족동 1004,36.38638046,127.3183474,['투명 페트']
285,대전광역시,570,유성구종합사회복지관,대전광역시 유성구 도안대로589번길 27,36.35292025,127.3394927,['투명 페트']
284,대전광역시,569,어은어린이공원,대전광역시 유성구 어은동 108-14,36.36238366,127.3553945,['투명 페트']
132,대전광역시,181,서구청,대전광역시 서구 둔산동 1300,36.35544032,127.3844356,['투명 페트']
131,대전광역시,180,용문동 행정복지센터,대전광역시 서구 용문동 589-7,36.339144,127.3916263,['투명 페트']
130,대전광역시,179,유등노인복지관,대전광역시 서구 도마동 413-3,36.32714179,127.3742899,['투명 페트']
129,대전광역시,178,복수동행정복지센터,대전광역시 서구 복수동 614,36.29987566,127.3788717,['투명 페트']
283,대전광역시,568,성남다목적체육관,대전광역시 동구 성남동 537,36.34261197,127.4307146,['투명 페트']
318,대전광역시,604,월평2동행정복지센터,대전광역시 서구 월평동 218-8,36.36370515,127.3741641,['투명 페트']
282,대전광역시,567,상소오토캠핑장,대전광역시 동구 산내로 748,36.23705567,127.4692643,"['캔', '투명 페트']"
202,대전광역시,276,아름드리 덕암동주민커뮤니티센터,대전광역시 대덕구 신탄진로681번길 10,36.43908749,127.4260219,"['캔', '투명 페트']"
203,대전광역시,277,관저동 광장,대전광역시 서구 관저동 1681,36.30626498,127.3343273,['투명 페트']
204,대전광역시,278,도안동 광장,대전광역시 서구 도안동 846,36.33093418,127.3385536,['투명 페트']
205,대전광역시,279,월평주차장,대전광역시 서구 월평로 53-3,36.35628354,127.3626142,['투명 페트']
206,대전광역시,280,온천2동 행정복지센터,대전광역시 유성구 장대로 120,36.36551766,127.3334524,['투명 페트']
207,대전광역시,281,회덕동 행정복지센터,대전광역시 대덕구 대전로 1376,36.37636805,127.4211133,['투명 페트']
127,대전광역시,176,관저다목적체육관,대전광역시 서구 관저동 1583,36.29239887,127.3364306,['투명 페트']
225,대전광역시,299,한민시장주차장,대전광역시 서구 괴정동 88-20,36.33523346,127.3831111,['투명 페트']
264,대전광역시,543,용전동행정복지센터,대전광역시 동구 계족로 515,36.35774115,127.4323828,['투명 페트']
243,대전광역시,518,봉암초등학교(포인트 적립 불가),대전광역시 유성구 궁동로 21,36.36405304,127.3477529,"['캔', '투명 페트']"
128,대전광역시,177,가수원 행정복지센터,대전광역시 서구 가수원로 105,36.30358605,127.3493575,['투명 페트']
597,대전광역시,907,월평1동치안센터 옆,대전광역시 서구 월평서로 13-1,36.35482317,127.3575354,['투명 페트']
135,대전광역시,184,갈마1동행정복지센터,대전광역시 서구 갈마동 316-3,36.35084426,127.3680004,['투명 페트']
316,대전광역시,602,갈마2동행정복지센터,대전광역시 서구 갈마동 1458,36.34524967,127.3746996,['투명 페트']
159,대전광역시,215,세븐일레븐 건양대간호학관,대전광역시 서구 관저동로 158,36.306995,127.3446212,['투명 페트']
317,대전광역시,603,탄방동행정복지센터,대전광역시 서구 탄방동 1440,36.34636955,127.3956171,['투명 페트']
585,대전광역시,895,도솔마을 작은도서관,대전광역시 서구 사마5길 21,36.31836622,127.3765503,['투명 페트']
584,부산광역시,893,괘내마을행복충전소,부산광역시 사상구 백양대로646번나길 40,35.16319675,128.9892794,['투명 페트']
211,서울특별시,285,영등포 제2스포츠센터,서울특별시 영등포구 당산동4가 96-2,37.52641232,126.9027341,['투명 페트']
11,서울특별시,19,구의3동주민센터,서울특별시 광진구 강변역로 17 구의3동 복합청사,37.5380524,127.0920163,"['캔', '투명 페트']"
10,서울특별시,18,광진광장,서울특별시 광진구 군자동 346-42,37.54794105,127.07323,"['캔', '투명 페트']"
155,서울특별시,211,세븐일레븐 압구정 2점,서울특별시 강남구 압구정로28길 28,37.52480572,127.0275849,['투명 페트']
489,서울특별시,795,중곡문화체육센터,서울특별시 광진구 중곡동 168-8,37.56791981,127.0845999,['투명 페트']
212,서울특별시,286,종로타워 1층,서울특별시 종로구 종로 51,37.57074433,126.9836091,"['캔', '투명 페트']"
511,서울특별시,818,신길6동주민센터,서울특별시 영등포구 대방천로 167,37.49933153,126.9098401,['투명 페트']
153,서울특별시,205,세븐일레븐 마로니에공원점,서울특별시 종로구 대학로 116,37.58153665,127.0023401,['투명 페트']
152,서울특별시,204,세븐일레븐 장안현대홈타운점,서울특별시 동대문구 답십리로72길 34,37.57069764,127.0737729,['투명 페트']
151,서울특별시,202,세븐일레븐 신림대학스타점,서울특별시 관악구 호암로24길 6,37.46991177,126.9335797,['투명 페트']
40,서울특별시,71,대학동주민센터,서울특별시 관악구 신림로 111 대학동주민센터,37.4706113,126.9369739,"['캔', '투명 페트']"
519,서울특별시,826,부암동주민센터,서울특별시 종로구 부암동 265-21,37.59245621,126.9641261,['투명 페트']
154,서울특별시,207,세븐일레븐 홍대5번출구점,서울특별시 마포구 신촌로2안길 2,37.55759016,126.9273089,['투명 페트']
126,서울특별시,175,세븐일레븐 이태원중앙점,서울특별시 용산구 회나무로26길 3,37.53953461,126.9917084,['투명 페트']
39,서울특별시,62,세븐일레븐 도선카페점,서울특별시 성동구 왕십리로 326,37.5628379,127.0340538,"['캔', '투명 페트']"
231,서울특별시,306,반포1동 주민센터,서울특별시 서초구 반포동 20-48,37.50515413,127.0134501,['투명 페트']
235,서울특별시,310,KB국민카드,서울특별시 종로구 새문안로3길 30,37.57262367,126.9730721,"['캔', '투명 페트']"
236,서울특별시,311,종로구청,서울특별시 종로구 종로1길 36,37.57348941,126.9791654,"['캔', '투명 페트']"
548,서울특별시,855,중랑구 환경교육센터,서울특별시 중랑구 신내동 353-2,37.6135582,127.1006865,['투명 페트']
549,서울특별시,856,면목5동주민센터,서울특별시 중랑구 면목동 175-18,37.58570895,127.0795506,['투명 페트']
436,서울특별시,740,월촌중학교,서울특별시 양천구 목동서로 31,37.53771341,126.8831705,"['캔', '투명 페트']"
550,서울특별시,857,대방청소년문화의집,서울특별시 동작구 여의대방로36길 71,37.50696551,126.9264058,"['캔', '투명 페트']"
68,서울특별시,103,소리공원,서울특별시 송파구 문정동 319-1,37.4825585,127.120883,"['캔', '투명 페트']"
69,서울특별시,104,석촌호수수변무대,서울특별시 송파구 석촌호수로 191,37.50676072,127.0981902,"['캔', '투명 페트']"
70,서울특별시,108,목3동행정복지센터 정문 옆,서울특별시 양천구 목동중앙남로16나길 55,37.54473336,126.8644559,"['캔', '투명 페트']"
71,서울특별시,110,강동구민회관,서울특별시 강동구 상암로 168,37.54574669,127.1411801,"['캔', '투명 페트']"
262,서울특별시,540,정신여자고등학교,서울특별시 송파구 올림픽로4길 16,37.50875297,127.0716252,"['캔', '투명 페트']"
215,서울특별시,289,유락종합사회복지관,서울특별시 중구 신당동 160-2,37.56515934,127.0227961,"['캔', '투명 페트']"
490,서울특별시,796,오금동주민센터,서울특별시 송파구 오금동 50-1,37.5030085,127.1282092,"['캔', '투명 페트']"
38,서울특별시,61,세븐일레븐롯데월드몰수족관점,서울특별시 송파구 올림픽로 300 롯데월드몰 지하 1층 GATE20,37.5134981,127.1040702,"['캔', '투명 페트']"
36,서울특별시,57,가양레포츠센터,서울특별시 강서구 가양동 1493,37.5596943,126.865198,"['캔', '투명 페트']"
488,서울특별시,794,광진구민체육센터,서울특별시 광진구 광장동 313-3,37.54606878,127.1063894,"['캔', '투명 페트']"
540,서울특별시,847,영등포제1스포츠센터,서울특별시 영등포구 신길동 426-3,37.50036928,126.9061097,['투명 페트']
486,서울특별시,792,종로구민회관,서울특별시 종로구 지봉로5길 7-5,37.57344077,127.0147246,['투명 페트']
485,서울특별시,791,올림픽기념국민생활관,서울특별시 종로구 성균관로 91,37.59030378,126.9990149,['투명 페트']
149,서울특별시,200,세븐일레븐 대치3호점,서울특별시 강남구 삼성로 151,37.4931355,127.0609769,['투명 페트']
148,서울특별시,199,세븐일레븐 동부센터점,서울특별시 광진구 능동로 268,37.55385302,127.0780427,['투명 페트']
642,서울특별시,960,아차산 숲속놀이터,서울특별시 광진구 구의동 3-20,37.55344496,127.0994852,['투명 페트']
641,서울특별시,959,중곡역 소공원,서울특별시 광진구 중곡동 30-79,37.56602527,127.084875,['투명 페트']
640,서울특별시,958,구의1동주민센터,서울특별시 광진구 광나루로36길 56,37.54232618,127.085711,['투명 페트']
180,서울특별시,249,자양종합사회복지관,서울특별시 광진구 자양번영로 35,37.53289751,127.0753643,"['캔', '투명 페트']"
146,서울특별시,196,세븐일레븐 쌍문중앙점,서울특별시 도봉구 우이천로32길 49,37.64991546,127.0249251,['투명 페트']
145,서울특별시,194,세븐일레븐 면목엠비스점,서울특별시 중랑구 상봉로 37,37.58928327,127.0935642,['투명 페트']
63,서울특별시,96,암사유적지,서울특별시 강동구 올림픽로 875,37.56054641,127.1302578,"['캔', '투명 페트']"
64,서울특별시,97,다산동주민센터,서울특별시 중구 동호로15길 50 다산동주민센터,37.5542871,127.0082443,"['캔', '투명 페트']"
144,서울특별시,193,세븐일레븐 챌린지스토어점,서울특별시 송파구 올림픽로 269,37.51448924,127.1006217,['투명 페트']
143,서울특별시,192,세븐일레븐 답십리위브점,서울특별시 동대문구 답십리로 130,37.57284127,127.0523798,['투명 페트']
639,서울특별시,957,자양한강도서관,서울특별시 광진구 뚝섬로52길 66,37.52917699,127.0778869,"['캔', '투명 페트']"
462,서울특별시,767,영등포다목적배드민턴체육관,서울특별시 영등포구 도림동 254,37.50625773,126.8984031,['투명 페트']
463,서울특별시,768,대림어린이공원,서울특별시 영등포구 대림로 106,37.49124633,126.9030031,['투명 페트']
464,서울특별시,769,중화2동 제2공영주차장,서울특별시 중랑구 중화동 73-3,37.59724665,127.0753505,['투명 페트']
35,서울특별시,56,강서구민회관,서울특별시 강서구 우장산로 66 강서구민회관,37.5535715,126.8433474,"['캔', '투명 페트']"
34,서울특별시,55,강서구청,서울특별시 강서구 화곡로 302,37.55096462,126.8495338,"['캔', '투명 페트']"
168,서울특별시,224,롯데마트 양평점 3층,서울특별시 영등포구 선유로 138,37.52609626,126.8915772,['투명 페트']
37,서울특별시,60,국사봉중학교(포인트 적립 불가),서울특별시 동작구 양녕로20길 20 국사봉중학교,37.493623,126.9441019,"['캔', '투명 페트']"
170,서울특별시,226,롯데마트 서초점 지하4층,서울특별시 서초구 서초대로38길 12,37.49006962,127.0063322,['투명 페트']
466,서울특별시,771,난곡재생활력소,서울특별시 관악구 신림동 646-131,37.46952011,126.9236136,['투명 페트']
467,서울특별시,772,성현동자치회관,서울특별시 관악구 봉천동 1703-6,37.48722597,126.9567986,['투명 페트']
492,서울특별시,798,위례동주민센터,서울특별시 송파구 장지동 882,37.48104402,127.1440171,"['캔', '투명 페트']"
136,서울특별시,185,송파구새활용센터,서울특별시 송파구 문정로 246,37.49989911,127.1420132,['투명 페트']
137,서울특별시,186,이마트 명일점,서울특별시 강동구 고덕로 276,37.55460469,127.1559873,"['캔', '투명 페트']"
491,서울특별시,797,거여2동주민센터,서울특별시 송파구 거여동 697-9,37.49344705,127.1471337,"['캔', '투명 페트']"
172,서울특별시,228,롯데마트 월드타워점 지하 2층,서울특별시 송파구 올림픽로 300,37.51354013,127.1041472,['투명 페트']
426,서울특별시,727,번2동주민센터,서울특별시 강북구 한천로 897,37.63229475,127.0388471,['투명 페트']
29,서울특별시,47,낙성대동주민센터,서울특별시 관악구 낙성대로4가길 5 낙성대동주민센터,37.4762949,126.9583967,"['캔', '투명 페트']"
423,서울특별시,724,삼각산동주민센터,서울특별시 강북구 삼양로19길 25,37.61518053,127.0209481,['투명 페트']
358,서울특별시,648,동작청소년문화의집,서울특별시 동작구 상도로15바길 5,37.50411579,126.9335081,"['캔', '투명 페트']"
359,서울특별시,649,대방동주민센터,서울특별시 동작구 여의대방로44길 20,37.50811425,126.9263311,"['캔', '투명 페트']"
360,서울특별시,650,사당종합체육관,서울특별시 동작구 사당로27길 232,37.49244692,126.9700823,"['캔', '투명 페트']"
361,서울특별시,651,상도 어울마당,서울특별시 동작구 성대로 180,37.49926531,126.9404278,"['캔', '투명 페트']"
563,서울특별시,870,마곡레포츠센터,서울특별시 강서구 양천로 251,37.57302821,126.8312189,"['캔', '투명 페트']"
562,서울특별시,869,상도3동 빙수골공원,서울특별시 동작구 상도동 292-56,37.49673121,126.9320305,"['캔', '투명 페트']"
561,서울특별시,868,목동근린공원,서울특별시 양천구 목동 560,37.54695017,126.877996,"['캔', '투명 페트']"
560,서울특별시,867,목4동시장고객지원센터,서울특별시 양천구 목동중앙남로7길 8,37.53758274,126.8661677,"['캔', '투명 페트']"
559,서울특별시,866,신정3동주민센터,서울특별시 양천구 신정동 1263,37.51520659,126.8549106,"['캔', '투명 페트']"
558,서울특별시,865,신월문화체육센터,서울특별시 양천구 신월동 987,37.51998734,126.8350262,"['캔', '투명 페트']"
557,서울특별시,864,곰달래꿈마을,서울특별시 양천구 신월동 227-2,37.52986242,126.8367269,"['캔', '투명 페트']"
369,서울특별시,659,세븐일레븐 한양대정보관점,서울특별시 성동구 왕십리로 222,37.55661565,127.0459774,['투명 페트']
556,서울특별시,863,신월1동주민센터,서울특별시 양천구 신월동 135-18,37.5327742,126.8314143,"['캔', '투명 페트']"
555,서울특별시,862,목동보건지소,서울특별시 양천구 목동 717-43,37.54015608,126.8670428,"['캔', '투명 페트']"
591,서울특별시,901,남가좌1동주민센터,서울특별시 서대문구 남가좌동 385-3,37.57332889,126.9198485,['투명 페트']
592,서울특별시,902,서대문구 리앤업사이클플라자,서울특별시 서대문구 홍은동 426-3,37.58262392,126.9367924,['투명 페트']
425,서울특별시,726,미아동주민센터,서울특별시 강북구 미아동 197-1,37.62690791,127.0269469,['투명 페트']
357,서울특별시,647,신대방2동주민센터,서울특별시 동작구 신대방동 723,37.49841165,126.9247094,"['캔', '투명 페트']"
356,서울특별시,646,상도1동주민센터,서울특별시 동작구 상도동 437,37.49804109,126.9529559,"['캔', '투명 페트']"
355,서울특별시,645,남성역 2번 출구,서울특별시 동작구 사당동 250-2,37.48448903,126.9711596,"['캔', '투명 페트']"
354,서울특별시,644,사당3동주민센터,서울특별시 동작구 사당동 256-1,37.48464724,126.9734181,"['캔', '투명 페트']"
575,서울특별시,884,관악청년청,서울특별시 관악구 봉천동 912-26,37.48219599,126.9456394,['투명 페트']
586,서울특별시,896,연희동주민센터,서울특별시 서대문구 연희로 189,37.57381587,126.9352631,['투명 페트']
571,서울특별시,879,성내1동주민센터,서울특별시 강동구 성내로 13,37.53038941,127.1223786,['투명 페트']
570,서울특별시,878,천호청소년문화의집,서울특별시 강동구 천호동 308-9,37.54518163,127.1286831,['투명 페트']
569,서울특별시,877,상일1동주민센터,서울특별시 강동구 상일동 513-2,37.55057592,127.1684164,['투명 페트']
568,서울특별시,876,길동제2자치회관,서울특별시 강동구 명일로 229-1,37.53923707,127.1462816,['투명 페트']
587,서울특별시,897,충현동주민센터,서울특별시 서대문구 북아현로22길 38,37.56482401,126.9547674,['투명 페트']
343,서울특별시,633,샘터어린이공원,서울특별시 중랑구 면목동 656,37.57309692,127.0833492,['투명 페트']
20,서울특별시,37,망우역,서울특별시 중랑구 상봉동 500-1,37.59844864,127.0923799,"['캔', '투명 페트']"
344,서울특별시,634,면목2동 주민센터,서울특별시 중랑구 면목동 180-8,37.58967588,127.0790878,['투명 페트']
588,서울특별시,898,중앙소공원,서울특별시 서대문구 홍은동 9-498,37.59877272,126.9475675,['투명 페트']
589,서울특별시,899,홍제3동주민센터,서울특별시 서대문구 세검정로4길 32,37.59376192,126.9497706,['투명 페트']
590,서울특별시,900,남가좌2동주민센터,서울특별시 서대문구 남가좌동 319-23,37.57851448,126.9238137,['투명 페트']
565,서울특별시,872,화곡4동주민센터,서울특별시 강서구 곰달래로57가길 26,37.53470669,126.8606685,['투명 페트']
564,서울특별시,871,곰달래문화복지센터,서울특별시 강서구 강서로5길 50,37.52906336,126.8490121,['투명 페트']
351,서울특별시,641,컵밥거리,서울특별시 동작구 노량진로 170,37.51338464,126.9463407,"['캔', '투명 페트']"
352,서울특별시,642,흑석동주민센터,서울특별시 동작구 흑석동 335-2,37.50587099,126.9666359,"['캔', '투명 페트']"
353,서울특별시,643,사당2동주민센터,서울특별시 동작구 사당동 91-126,37.48876377,126.9793303,"['캔', '투명 페트']"
345,서울특별시,635,신내1동 주민센터,서울특별시 중랑구 신내동 448-1,37.60601346,127.0994476,['투명 페트']
15,서울특별시,25,성일초등학교,서울특별시 강동구 성내로15길 33 성일스포츠센터 앞,37.5286373,127.1284635,"['캔', '투명 페트']"
156,서울특별시,212,세븐일레븐 역삼 14호점,서울특별시 강남구 논현로105길 53,37.50513081,127.0299844,['투명 페트']
606,서울특별시,919,여의동주민센터,서울특별시 영등포구 여의도동 5-8,37.51757519,126.9346754,['투명 페트']
105,서울특별시,152,신원동주민센터,서울특별시 관악구 신원로3길 13,37.48157076,126.9273284,"['캔', '투명 페트']"
14,서울특별시,24,강동구청 성안별관,서울특별시 강동구 성내로3가길 19,37.53068328,127.1239653,"['캔', '투명 페트']"
270,서울특별시,550,신림동 행정복지센터,서울특별시 관악구 신림동길 14,37.48741412,126.9271175,['투명 페트']
269,서울특별시,549,신사동 행정복지센터,서울특별시 관악구 조원로 142,37.48540342,126.9180373,['투명 페트']
552,서울특별시,859,사당5동주민센터 ,서울특별시 동작구 사당동 산 32-56,37.48558491,126.9669757,"['캔', '투명 페트']"
551,서울특별시,858,도림천산책길 ,서울특별시 동작구 신대방동 702-2,37.48531857,126.9040679,"['캔', '투명 페트']"
76,서울특별시,116,상도3동주민센터,서울특별시 동작구 성대로2길 11,37.49920407,126.9313418,"['캔', '투명 페트']"
157,서울특별시,213,세븐일레븐 성북두산점,서울특별시 성북구 화랑로48길 16,37.61269453,127.0687783,['투명 페트']
413,서울특별시,711,사당역 7번출구 앞,서울특별시 동작구 사당동 1043-14,37.47686843,126.9806337,"['캔', '투명 페트']"
268,서울특별시,548,미성 경로당,서울특별시 관악구 난곡로58길 11,37.48005657,126.9157282,['투명 페트']
267,서울특별시,547,삼성동 자치회관,서울특별시 관악구 호암로 520,37.46412357,126.9318113,['투명 페트']
266,서울특별시,546,밤골 경로당,서울특별시 관악구 인헌3가길 8,37.47392597,126.9673822,['투명 페트']
265,서울특별시,545,행운동 행정복지센터,서울특별시 관악구 봉천동 1670-7,37.48062395,126.9571218,['투명 페트']
74,서울특별시,114,노량진2동주민센터,서울특별시 동작구 장승배기로19길 48,37.50850579,126.9373593,"['캔', '투명 페트']"
421,서울특별시,722,강북구청,서울특별시 강북구 도봉로89길 13,37.63958732,127.0256853,['투명 페트']
422,서울특별시,723,강북문화예술회관,서울특별시 강북구 삼각산로 85,37.64052191,127.0130751,['투명 페트']
75,서울특별시,115,상도4동주민센터,서울특별시 동작구 양녕로27길 44,37.49937527,126.941402,"['캔', '투명 페트']"
553,서울특별시,860,상도1동 주민센터 정문 옆,서울특별시 동작구 상도동 437,37.49819887,126.9532075,"['캔', '투명 페트']"
271,서울특별시,551,은천동 행정복지센터,서울특별시 관악구 봉천로33나길 30,37.48537507,126.9425051,['투명 페트']
274,서울특별시,556,북한산 국립공원 정릉 사무소,서울특별시 성북구 정릉동 829-5,37.61826148,126.9973382,"['캔', '투명 페트']"
554,서울특별시,861,절고개공원,서울특별시 동작구 상도1동 508-2,37.50712729,126.951856,"['캔', '투명 페트']"
386,서울특별시,680,양평2동행정복지센터,서울특별시 영등포구 양평동4가 96,37.53618095,126.8943261,['투명 페트']
387,서울특별시,681,시립문래청소년센터,서울특별시 영등포구 문래동3가 73,37.51868558,126.8941274,['투명 페트']
388,서울특별시,682,신길4동주민센터,서울특별시 영등포구 신길동 209-102,37.50836757,126.911441,['투명 페트']
94,서울특별시,140,창5동주민센터,서울특별시 도봉구 도봉로136나길 20,37.65630431,127.0435853,"['캔', '투명 페트']"
402,서울특별시,697,상명대부속여고(포인트 적립 불가),서울특별시 종로구 홍지문2길 20,37.60326229,126.9538807,"['캔', '투명 페트']"
391,서울특별시,685,필동주민센터,서울특별시 중구 퇴계로36길 42,37.56017669,126.9955181,['투명 페트']
392,서울특별시,686,쓰레기연구소 새롬,서울특별시 중구 퇴계로52길 12,37.56277835,127.0036785,['투명 페트']
395,서울특별시,689,신월청소년문화센터,서울특별시 양천구 신월동 150-3,37.53533606,126.8257345,"['캔', '투명 페트']"
390,서울특별시,684,리앤업사이클센터,서울특별시 강동구 동남로 960,37.55927481,127.1571492,['투명 페트']
397,서울특별시,691,양서중학교 담벼락,서울특별시 양천구 신월동 790,37.53363209,126.8296248,"['캔', '투명 페트']"
396,서울특별시,690,신월3동행정복지센터,서울특별시 양천구 신월동 167-5,37.53356136,126.8290055,"['캔', '투명 페트']"
104,서울특별시,151,중앙동주민센터,서울특별시 관악구 양녕로6다길 7,37.48418815,126.9497897,"['캔', '투명 페트']"
228,울산광역시,302,대송동 주민센터,울산광역시 동구 대송5길 10,35.50324564,129.4184163,"['캔', '투명 페트']"
142,울산광역시,191,범서초등학교(포인트 적립 불가),울산광역시 울주군 범서읍 천상1길 7,35.56465078,129.2306954,"['캔', '투명 페트']"
524,인천광역시,831,계산3동행정복지센터,인천광역시 계양구 계산동 480-7,37.53775609,126.7293366,['투명 페트']
523,인천광역시,830,방축공영주차장,인천광역시 계양구 방축동 113,37.55061125,126.7394326,['투명 페트']
538,인천광역시,845,녹청자박물관 앞,인천광역시 서구 경서동 737-9,37.55842664,126.6556144,['투명 페트']
537,인천광역시,844,가정1동행정복지센터,인천광역시 서구 가정동 490-19,37.52126377,126.6758502,['투명 페트']
619,인천광역시,937,남촌도림동행정복지센터,인천광역시 남동구 남촌동로 32,37.43234339,126.7151554,['투명 페트']
616,인천광역시,934,구월2동행정복지센터,인천광역시 남동구 구월동 23-1,37.45622689,126.7132649,['투명 페트']
618,인천광역시,936,남동구노인복지관,인천광역시 남동구 소래로 610,37.44427082,126.7326316,['투명 페트']
615,인천광역시,933,간석4동행정복지센터,인천광역시 남동구 벽돌말로19번길 7,37.46646718,126.7006757,['투명 페트']
621,인천광역시,939,홈플러스 인천논현점(B3),인천광역시 남동구 청능대로 596,37.40048736,126.7253699,['투명 페트']
620,인천광역시,938,만수2동행정복지센터,인천광역시 남동구 만수서로 46,37.46147913,126.7311999,['투명 페트']
525,인천광역시,832,거여목체육공원,인천광역시 계양구 서운동 215,37.53393605,126.7563174,['투명 페트']
617,인천광역시,935,구월3동행정복지센터,인천광역시 남동구 문화서로 84,37.45273501,126.6968313,['투명 페트']
0,인천광역시,3,업사이클에코센터,인천광역시 미추홀구 매소홀로290번길 7,37.4432153,126.6553661,"['캔', '투명 페트']"
173,인천광역시,229,롯데마트 삼산점 지하1층,인천광역시 부평구 길주로 623,37.50770392,126.731611,['투명 페트']
138,인천광역시,187,창업·벤처 녹색융합클러스터(사내 전용),인천광역시 서구 정서진로 410,37.56866076,126.6469867,"['캔', '투명 페트']"
106,인천광역시,153,계양고등학교(포인트 적립 불가),인천광역시 계양구 계양문화로 177,37.54191683,126.7438447,"['캔', '투명 페트']"
288,인천광역시,573,오류왕길동행정복지센터,인천광역시 서구 왕길동 692-5,37.59697515,126.6374465,['투명 페트']
289,인천광역시,574,검단동행정복지센터,인천광역시 서구 검단로529번길 14,37.60496437,126.6616286,['투명 페트']
290,인천광역시,575,검단동노인복지관,인천광역시 서구 검단로502번길 15-1,37.60214232,126.660945,['투명 페트']
171,인천광역시,227,롯데마트 부평점 1층,인천광역시 부평구 마장로 296,37.50499826,126.7040929,['투명 페트']
169,인천광역시,225,롯데마트 검단점 1층,인천광역시 서구 원당대로 581,37.59457022,126.6644969,['투명 페트']
161,인천광역시,217,롯데마트 연수점 1층,인천광역시 연수구 청능대로 87,37.41508271,126.6751674,['투명 페트']
291,인천광역시,576,당하동행정복지센터,인천광역시 서구 당하동 1097-4,37.59207593,126.6745073,['투명 페트']
292,인천광역시,577,인천서구국민체육센터 ,인천광역시 서구 검암동 496,37.56643944,126.6782268,['투명 페트']
380,인천광역시,671,이마트 계양점,인천광역시 계양구 작전동 941,37.53077194,126.7366817,['투명 페트']
500,인천광역시,806,인천외국어고등학교(포인트 적립 불가),인천광역시 부평구 원적로 262,37.50289536,126.6947258,"['캔', '투명 페트']"
293,인천광역시,578,검암경서동 행정복지센터,인천광역시 서구 승학로 480,37.56437914,126.6735639,['투명 페트']
499,인천광역시,805,동산중학교,인천광역시 동구 동산로 58,37.47352882,126.647585,"['캔', '투명 페트']"
295,인천광역시,580,연희동행정복지센터,인천광역시 서구 연희동 723,37.54909613,126.6785277,['투명 페트']
296,인천광역시,581,석남2동행정복지센터,인천광역시 서구 거북로 116,37.50253323,126.6746702,['투명 페트']
297,인천광역시,582,석남1동행정복지센터,인천광역시 서구 석남동 465-3,37.51116457,126.6745762,['투명 페트']
298,인천광역시,583,신현원창동 행정복지센터,인천광역시 서구 신현동 294,37.51469007,126.6722534,['투명 페트']
299,인천광역시,584,인천서구청소년센터,인천광역시 서구 원창로 92,37.51751837,126.6592214,['투명 페트']
210,인천광역시,284,시민협력플랫폼,인천광역시 미추홀구 구월남로 20,37.45468282,126.6922348,"['캔', '투명 페트']"
301,인천광역시,586,청라3동행정복지센터,인천광역시 서구 청라한내로 89,37.53345399,126.6269183,['투명 페트']
294,인천광역시,579,인천서구청,인천광역시 서구 서곶로 307,37.54509899,126.676426,['투명 페트']
300,인천광역시,585,청라문화센터,인천광역시 서구 청라동 106-2,37.52469196,126.6341709,['투명 페트']
303,인천광역시,588,검단복지회관,인천광역시 서구 완정로92번길 18,37.60071999,126.6661152,['투명 페트']
160,인천광역시,216,롯데마트 계양점 지하2층,인천광역시 계양구 장제로 822,37.54089101,126.7360577,['투명 페트']
302,인천광역시,587,청라1동행정복지센터,인천광역시 서구 청라동 165-5,37.53253835,126.6539176,['투명 페트']
209,인천광역시,283,용현5동 행정복지센터,인천광역시 미추홀구 토금북로 60,37.45256784,126.6404248,"['캔', '투명 페트']"
245,전라남도,520,한전KDN 본관 2층 강당 앞,전라남도 나주시 빛가람로 661,35.02225363,126.7842155,"['캔', '투명 페트']"
238,전라남도,314,청춘공작소,전라남도 곡성군 곡성읍 읍내리 98-2,35.28245427,127.301728,['캔']
237,전라남도,313,대명해피니스,전라남도 곡성군 곡성읍 학정리 526-2,35.28619045,127.2887457,['투명 페트']
242,전라남도,517,한양파크빌,전라남도 곡성군 곡성읍 학정리 535-19,35.28480263,127.2905271,['투명 페트']
251,전라남도,526,문화건강센터 수영장 주차장 입구 ,전라남도 순천시 환선로 133,34.9674776,127.4866265,"['캔', '투명 페트']"
46,전라남도,78,소호요트경기장,전라남도 여수시 소호동,34.7387836,127.650754,"['캔', '투명 페트']"
253,전라남도,528,풍덕공원 왕가네 가게 앞 ,전라남도 순천시 풍덕동 1287,34.93990259,127.4981952,"['캔', '투명 페트']"
254,전라남도,529,오천동 공용화장실 앞 ,전라남도 순천시 오천동 1025,34.93504653,127.4937493,"['캔', '투명 페트']"
255,전라남도,530,연향 제1근린공원 화장실 근처 ,전라남도 순천시 연향번영길 93,34.94928081,127.5172183,"['캔', '투명 페트']"
256,전라남도,531,신대스포츠센터 주차장 앞 보도 ,전라남도 순천시 해룡면 매안로 138,34.93659894,127.5504328,"['캔', '투명 페트']"
45,전라남도,77,선원공원,전라남도 여수시 무선 7길,34.773792,127.6510397,"['캔', '투명 페트']"
98,전라남도,145,순천시 재활용도움센터,전라남도 순천시 백연길 111,34.95210437,127.5332718,"['캔', '투명 페트']"
19,전라남도,30,거북선공원,전라남도 여수시 선소로 93 전기차충전소 뒷편,34.7617408,127.6676801,"['캔', '투명 페트']"
18,전라남도,29,여수시청,전라남도 여수시 시청동1길 30,34.759437,127.6633282,"['캔', '투명 페트']"
16,전라남도,27,해양공원,전라남도 여수시 종화동 526-7,34.73879484,127.7453382,"['캔', '투명 페트']"
252,전라남도,527,조곡동 행정복지센터 입구 ,전라남도 순천시 자경1길 13,34.95002792,127.498604,"['캔', '투명 페트']"
96,전라남도,142,순천만 국가정원 지구동문,전라남도 순천시 국가정원1호길 152-55,34.92908835,127.5093728,"['캔', '투명 페트']"
365,전라남도,655,목포 어울림도서관 인도,전라남도 목포시 용해동 1006,34.81708527,126.3956949,['투명 페트']
362,전라남도,652,평화광장 평화매점 앞,전라남도 목포시 상동 1157,34.79593645,126.4322309,['투명 페트']
50,전라남도,82,미평클린하우스,전라남도 여수시 미평11길 6,34.769304,127.705117,"['캔', '투명 페트']"
49,전라남도,81,서강동주민센터,전라남도 여수시 서교1길 28 서강동주민자치센터,34.7411441,127.7258934,"['캔', '투명 페트']"
501,전라남도,807,라온초등학교,전라남도 나주시 그린로 93,35.01430742,126.778898,"['캔', '투명 페트']"
502,전라남도,809,여수시청 구보건소,전라남도 여수시 시청동1길 23,34.75882454,127.6634032,"['캔', '투명 페트']"
503,전라남도,810,성암맨션,전라남도 곡성군 옥과면 죽림2길 45,35.27572224,127.1411615,['투명 페트']
504,전라남도,811,옥과해광샹그릴라,전라남도 곡성군 옥과면 죽림리 632-13,35.27606221,127.1414094,['투명 페트']
41,전라남도,72,드림스타트센터,전라남도 광양시 정수2길 47 광영동사무소,34.9628962,127.7219827,"['캔', '투명 페트']"
42,전라남도,73,백운쇼핑센터,전라남도 광양시 폭포사랑길 99,34.9402886,127.7322355,"['캔', '투명 페트']"
43,전라남도,74,중마동주민센터,전라남도 광양시 중마중앙로 119 중마동사무소,34.9410142,127.6976752,"['캔', '투명 페트']"
44,전라남도,75,광양읍사무소,전라남도 광양시 광양읍 남등길 6 광양읍사무소,34.9733971,127.5810568,"['캔', '투명 페트']"
505,전라남도,812,옥과면 재활용동네마당,전라남도 곡성군 옥과면 옥과리 128-1,35.27619624,127.134529,['투명 페트']
506,전라남도,813,옥과면 행정복지센터,전라남도 곡성군 옥과면 천변로 135,35.27389878,127.1356847,['투명 페트']
48,전라남도,80,웅천친수공원,전라남도 여수시 예울마루로 37-40,34.747301,127.6680462,"['캔', '투명 페트']"
47,전라남도,79,미평공원,전라남도 여수시 미평동,34.7679181,127.7033991,"['캔', '투명 페트']"
512,전라남도,819,광영동주민센터,전라남도 광양시 광영동 1087,34.96300507,127.7254099,['투명 페트']
178,전라남도,246,함평 영화학교(포인트 적립 불가),전라남도 함평군 함평읍 한나리길 10-25,35.10400916,126.4943586,"['캔', '투명 페트']"
478,전라남도,784,마동근린체육공원,전라남도 광양시 중동 674-4,34.95186716,127.6924717,"['캔', '투명 페트']"
67,전라남도,102,오동도,전라남도 여수시 오동도로 242,34.7452359,127.7660166,"['캔', '투명 페트']"
470,전라남도,776,골약동행정복지센터,전라남도 광양시 성황동 1861,34.93725826,127.6788911,"['캔', '투명 페트']"
363,전라남도,653,부흥동 행정복지센터,전라남도 목포시 옥암동 1022,34.80435424,126.4343806,['투명 페트']
364,전라남도,654,옥암동 행정복지센터,전라남도 목포시 삼향천로 118,34.81029956,126.4296815,['투명 페트']
366,전라남도,656,원산동 행정복지센터,전라남도 목포시 연산동 1277,34.81158565,126.3811255,['투명 페트']
367,전라남도,657,팔레스마트 옆 공원,전라남도 목포시 산정동 1198-5,34.80827657,126.3712653,['투명 페트']
368,전라남도,658,유달동행정복지센터,전라남도 목포시 유동로 19,34.78338982,126.3802027,['투명 페트']
95,전라남도,141,순천업사이클센터더새롬,전라남도 순천시 팔마1길 9-19,34.93245641,127.5126815,"['캔', '투명 페트']"
371,전라남도,661,하당동 행정복지센터,전라남도 목포시 백년대로337번길 35,34.8085637,126.4209505,['투명 페트']
370,전라남도,660,동명동 행정복지센터,전라남도 목포시 자유로20번길 27,34.79073085,126.3920985,['투명 페트']
78,전라남도,120,차동공원,전라남도 여수시 소라면 죽림리 1140,34.76522118,127.6374414,"['캔', '투명 페트']"
77,전라남도,119,수변공원,전라남도 여수시 어항단지로 147,34.72853199,127.7233581,"['캔', '투명 페트']"
435,전라남도,736,완도군생활문화센터,전라남도 완도군 완도읍 개포로 111,34.31634998,126.7420607,['투명 페트']
437,전라남도,742,신성복지회관,전라남도 강진군 강진읍 서성리 40-3,34.6372347,126.7652834,['투명 페트']
438,전라남도,743,사의재 버스주차장,전라남도 강진군 강진읍 동성리 300-1,34.64420631,126.77189,['투명 페트']
208,전라남도,282,광양시청 제2청사,전라남도 광양시 광양읍 인덕로 1100,34.98077531,127.5823236,"['캔', '투명 페트']"
17,전라남도,28,이순신광장,전라남도 여수시 이순신광장로,34.7392178,127.7362481,"['캔', '투명 페트']"
234,전라북도,309,LH전북본부,전라북도 전주시 완산구 홍산로 158,35.80744531,127.1049408,['투명 페트']
232,전라북도,307,부안여자고등학교,전라북도 부안군 부안읍 교동1길 54,35.71538969,126.7353952,"['캔', '투명 페트']"
179,전라북도,247,영선중학교(포인트 적립 불가),전라북도 고창군 무장면 왕제산로 713,35.4140991,126.557458,"['캔', '투명 페트']"
314,전라북도,600,마이산남부관광안내소,전라북도 진안군 마령면 마이산남로 175,35.75642357,127.3931818,['투명 페트']
304,전라북도,589,모항해수욕장,전라북도 부안군 변산면 도청리 171-5,35.58265338,126.508127,['투명 페트']
508,전라북도,815,원광중학교,전라북도 익산시 무왕로31길 154,35.97454323,127.0001552,"['캔', '투명 페트']"
54,전라북도,87,고창실내체육관,전라북도 고창군 고창읍 55-2,35.4354939,126.7067707,"['캔', '투명 페트']"
342,전라북도,631,김제노인종합복지관,전라북도 김제시 하동1길 79,35.81473739,126.8950336,['투명 페트']
341,전라북도,630,김제시청소년종합센터,전라북도 김제시 도작로 224-32,35.81460689,126.9005497,['투명 페트']
340,전라북도,629,교월동행정복지센터,전라북도 김제시 옥산동 275,35.79481325,126.8788175,['투명 페트']
339,전라북도,628,신풍동행정복지센터,전라북도 김제시 중앙10길 11,35.79610616,126.8977905,['투명 페트']
338,전라북도,627,요촌동행정복지센터,전라북도 김제시 요촌중길 50,35.80494202,126.8914784,['투명 페트']
337,전라북도,626,검산동행정복지센터,전라북도 김제시 검산동 1057-11,35.80323319,126.9035897,['투명 페트']
600,전라북도,910,고창군여성회관,전라북도 고창군 고창읍 월곡리 619,35.43794547,126.712649,"['캔', '투명 페트']"
574,전라북도,883,부안상원아파트,전라북도 부안군 부안읍 상원길 19,35.73074785,126.7391242,['투명 페트']
332,전라북도,621,고창 전통시장,전라북도 고창군 고창읍 읍내리 371-4,35.43222731,126.6990524,['투명 페트']
331,전라북도,620,고창 스포츠타운,전라북도 고창군 고창읍 월암리 123-1,35.43013018,126.7268303,['투명 페트']
330,전라북도,619,선운산 버스정류장,전라북도 고창군 아산면 삼인리 392-1,35.50280622,126.5869757,['투명 페트']
329,전라북도,618,구시포여름치안센터,전라북도 고창군 상하면 진암구시포로 545,35.44545444,126.435683,['투명 페트']
573,전라북도,882,변산송림아파트,전라북도 부안군 변산면 지서로 80,35.66477691,126.5287073,['투명 페트']
307,전라북도,592,육아종합지원센터,전라북도 익산시 영등동 814,35.96268719,126.9754867,['투명 페트']
308,전라북도,593,배산체육공원,전라북도 익산시 동서로 21,35.95999584,126.9401475,['투명 페트']
309,전라북도,594,혁신도시민원센터,전라북도 완주군 이서면 갈산로 40,35.83652884,127.0559965,['투명 페트']
311,전라북도,596,고향마을아파트,전라북도 진안군 진안읍 군상리 200-1,35.79376821,127.4385267,['투명 페트']
328,전라북도,617,선운산 공중화장실,전라북도 고창군 아산면 삼인리 287-19,35.50316192,126.5862271,['투명 페트']
313,전라북도,599,대아월랑아파트,전라북도 진안군 진안읍 군하리 454-50,35.78762955,127.4205434,['투명 페트']
312,전라북도,598,군상주공2차아파트,전라북도 진안군 진안읍 군상리 790-2,35.79694874,127.4262454,['투명 페트']
306,전라북도,591,중앙체육공원,전라북도 익산시 하나로 322,35.94975383,126.9860509,['투명 페트']
305,전라북도,590,부안해뜰마루,전라북도 부안군 부안읍 별천지로 3,35.72581208,126.741652,['투명 페트']
327,전라북도,616,고창 나들목공원,전라북도 고창군 고창읍 석교리 7,35.44130086,126.6979778,['투명 페트']
315,전라북도,601,진안만남의광장,전라북도 진안군 진안읍 진무로 1054-6,35.78894473,127.4258515,['투명 페트']
310,전북특별자치도,595,발효테마파크 테라피센터,전북특별자치도 순창군 순창읍 장류로 55,35.36800797,127.1129899,['투명 페트']
33,제주특별자치도,51,제주시 성판악 등산로 클린하우스,제주특별자치도 제주시 조천읍 516로 1865,33.38450347,126.6192906,['투명 페트']
32,제주특별자치도,50,하나로마트노형점,제주특별자치도 제주시 월광로 77,33.48766119,126.4676781,['투명 페트']
134,제주특별자치도,183,제주청년몰,제주특별자치도 제주시 동문로4길 9,33.5120877,126.5282404,['투명 페트']
649,제주특별자치도,967,제주대학교 학생회관 2층 출입구 방향,제주특별자치도 제주시 제주대학로 102,33.45479483,126.560595,['투명 페트']
88,제주특별자치도,132,조천읍사무소,제주특별자치도 제주시 조천읍 신북로 194,33.5344013,126.6341322,['투명 페트']
87,제주특별자치도,131,남원읍사무소,제주특별자치도 서귀포시 남원읍 태위로 695,33.27988479,126.7206657,['투명 페트']
12,제주특별자치도,20,사려니숲길-자판기옆,제주특별자치도 서귀포시 표선면 가시리 산 158,33.39509612,126.6847385,['투명 페트']
13,제주특별자치도,22,사려니숲길-화장실옆,제주특별자치도 서귀포시 표선면 가시리 산 158-4,33.39517133,126.6850676,['투명 페트']
650,제주특별자치도,968,제주대학교 학생회관 2층 서점 앞,제주특별자치도 제주시 제주대학로 102,33.45484854,126.5604872,['투명 페트']
31,제주특별자치도,49,관음사 야영장 클린하우스 안,제주특별자치도 제주시 산록북로 588,33.42152041,126.5496964,['투명 페트']
30,제주특별자치도,48,하나로마트일도점,제주특별자치도 제주시 남광로 206,33.50376157,126.5526879,['투명 페트']
483,충청남도,789,모종캐슬어울림,충청남도 아산시 모종로22번길 7,36.78378428,127.0215991,['무색 PP']
177,충청남도,235,배방읍행정복지센터,충청남도 아산시 배방읍 공수리 1672,36.77361832,127.054181,['무색 PP']
176,충청남도,233,아산시중앙도서관,충청남도 아산시 용화동 1391,36.77033466,127.0062725,['무색 PP']
484,충청남도,790,탕정삼성트라팰리스,충청남도 아산시 탕정면 탕정면로 37,36.80115533,127.0610216,['무색 PP']
493,충청남도,799,한마음공원,충청남도 당진시 읍내동 1487,36.9002578,126.6295019,['투명 페트']
494,충청남도,800,당진교육문화스포츠센터,충청남도 당진시 읍내동 232-85,36.8938302,126.6322255,['투명 페트']
277,충청남도,560,당진종합버스터미널,충청남도 당진시 밤절로 149,36.90269661,126.6462053,['투명 페트']
9,충청남도,13,어름수변공원,충청남도 당진시 대덕동 1809,36.88413219,126.642564,"['캔', '투명 페트']"
276,충청남도,559,당진어시장,충청남도 당진시 당진시장길 100,36.8900046,126.6298992,['투명 페트']
