index,시도,idx,name,address,latitude,longitude,input_wastes
651,강원특별자치도,973,양양군청소년수련관,"강원특별자치도 양양군 양양읍 복개길 23-2""",38.07299599295967,128.6176780107364,"['캔', '투명 페트']"
79,강원특별자치도,121,박수근광장,"강원특별자치도 양구군 양구읍 상리 206-64""",38.1042428757915,127.987807043667,"['캔', '투명 페트']"
411,강원특별자치도,708,도계작은영화관,"강원특별자치도 삼척시 도계읍 전두리 58-8""",37.2296399384203,129.04310540328348,"['캔', '투명 페트']"
412,강원특별자치도,709,사직동 공영주차장,"강원특별자치도 삼척시 사직동 302-1""",37.433998718858206,129.1683949432682,"['캔', '투명 페트']"
429,강원특별자치도,730,효자2동행정복지센터,"강원특별자치도 춘천시 효자동 148-31""",37.87228603985787,127.73643377909475,['투명 페트']
431,강원특별자치도,732,교동행정복지센터,"강원특별자치도 춘천시 교동 96-2""",37.88029617717871,127.73629472595027,['투명 페트']
432,강원특별자치도,733,후평1동행정복지센터,"강원특별자치도 춘천시 후평동 713-5""",37.88599660110046,127.74527497388787,['투명 페트']
433,강원특별자치도,734,후평2동행정복지센터,"강원특별자치도 춘천시 후평동 792-1""",37.87747255918185,127.7507897644314,['투명 페트']
434,강원특별자치도,735,동면행정복지센터,"강원특별자치도 춘천시 동면 지내리 209-26""",37.90997676381025,127.78142699160593,['투명 페트']
472,강원특별자치도,778,속초시청,"강원특별자치도 속초시 중앙로 183""",38.20743909910977,128.59198870221692,['투명 페트']
473,강원특별자치도,779,노학동행정복지센터,"강원특별자치도 속초시 동해대로 4245""",38.19708179363344,128.57631591148967,['투명 페트']
80,강원특별자치도,122,원주시청 어린이집 맞은편 야외화장실 옆,"강원특별자치도 원주시 무실동 1""",37.33976658303866,127.91878003912272,"['캔', '투명 페트']"
474,강원특별자치도,780,속초시립도서관,"강원특별자치도 속초시 조양로 89""",38.18669022166711,128.59088634747104,['투명 페트']
476,강원특별자치도,782,속초해수욕장제2공영주차장,"강원특별자치도 속초시 조양동 1450-4""",38.18965079560362,128.60286953168742,['투명 페트']
62,강원특별자치도,95,남양동행정복지센터,"강원특별자치도 삼척시 남양길 11""",37.4425644575852,129.168465969137,"['캔', '투명 페트']"
61,강원특별자치도,94,성내동행정복지센터,"강원특별자치도 삼척시 대학로 57""",37.44621529598136,129.1629287958522,"['캔', '투명 페트']"
60,강원특별자치도,93,홈플러스삼척점,"강원특별자치도 삼척시 중앙로 258 홈플러스""",37.4464341,129.1683278,"['캔', '투명 페트']"
59,강원특별자치도,92,삼척시청별관주차장,"강원특별자치도 삼척시 교동 695""",37.4489282,129.1642743,"['캔', '투명 페트']"
58,강원특별자치도,91,정라동행정복지센터,"강원특별자치도 삼척시 새천년도로 16""",37.4360724,129.1845269,"['캔', '투명 페트']"
57,강원특별자치도,90,평생학습관,"강원특별자치도 삼척시 청석로3길 16-41""",37.4490586,129.178091,"['캔', '투명 페트']"
56,강원특별자치도,89,신북읍행정복지센터,"강원특별자치도 춘천시 신북읍 율문길 75""",37.9258827,127.7462326,"['캔', '투명 페트']"
55,강원특별자치도,88,강남동행정복지관,"강원특별자치도 춘천시 온의동 6-37""",37.8680384,127.7193904,"['캔', '투명 페트']"
487,강원특별자치도,793,국토정중앙면사무소 옆,"강원특별자치도 양구군 국토정중앙면 용하리 416-1""",38.10832567285448,128.03459351076413,['투명 페트']
475,강원특별자치도,781,엑스포제3공영주차장,"강원특별자치도 속초시 조양동 1559-4""",38.19126064704305,128.58515038881816,['투명 페트']
52,강원특별자치도,84,석사공원,"강원특별자치도 춘천시 석사동 731""",37.8665881,127.7544093,"['캔', '투명 페트']"
81,강원특별자치도,123,원주시립중앙도서관,"강원특별자치도 원주시 단구동 1703""",37.32609820598522,127.953535566865,"['캔', '투명 페트']"
83,강원특별자치도,125,기후변화홍보관,"강원특별자치도 원주시 행구동 1029""",37.34261439191699,127.99660435694028,"['캔', '투명 페트']"
183,강원특별자치도,255,구름다리,"강원특별자치도 삼척시 교동 728-2""",37.44691968837312,129.17155032703874,"['캔', '투명 페트']"
184,강원특별자치도,256,봉황공원,"강원특별자치도 삼척시 남양동 339-2""",37.4414578621754,129.17010443184896,"['캔', '투명 페트']"
226,강원특별자치도,300,삼척 문화공원,"강원특별자치도 삼척시 성남동 199-5""",37.43822775492686,129.15882655074117,"['캔', '투명 페트']"
227,강원특별자치도,301,도계공영주차장,"강원특별자치도 삼척시 도계읍 강원남부로 1488""",37.23734739621965,129.0437388368164,"['캔', '투명 페트']"
248,강원특별자치도,523,하나로마트 갈마로점 입구,"강원특별자치도 홍천군 홍천읍 갈마곡리 23-33""",37.699549168057885,127.9031242474302,"['캔', '투명 페트']"
249,강원특별자치도,524,홍천군 종합사회복지관 입구,"강원특별자치도 홍천군 홍천읍 진리 10-35""",37.69156487765617,127.89153387050412,"['캔', '투명 페트']"
250,강원특별자치도,525,연봉도서관 입구,"강원특별자치도 홍천군 홍천읍 연봉리 200""",37.682054806178336,127.8747643218552,['투명 페트']
272,강원특별자치도,552,동면사무소,"강원특별자치도 양구군 동면 금강산로 1693""",38.20232927544858,128.0434972965904,"['캔', '투명 페트']"
273,강원특별자치도,553,국토정중앙면사무소 헬스장,"강원특별자치도 양구군 국토정중앙면 삼팔선로 15""",38.10825488465171,128.0347036783162,"['캔', '투명 페트']"
278,강원특별자치도,563,사내청소년문화의집,"강원특별자치도 화천군 사내면 문화마을1길 44""",38.0695154588224,127.52365942401698,['투명 페트']
82,강원특별자치도,124,젊음의광장,"강원특별자치도 원주시 단구로 170""",37.33541814369496,127.94663483283344,"['캔', '투명 페트']"
279,강원특별자치도,564,간동면사무소,"강원특별자치도 화천군 간동면 유촌리 614-1""",38.05522567858221,127.7895999734032,['투명 페트']
348,강원특별자치도,638,태백문화예술회관,"강원특별자치도 태백시 고원로 203""",37.17210116095071,128.98849269959786,"['캔', '투명 페트']"
349,강원특별자치도,639,태백종합운동장,"강원특별자치도 태백시 연화산길 10""",37.1366814426545,129.00149313343562,"['캔', '투명 페트']"
350,강원특별자치도,640,쇠바우골탄광문화장터,"강원특별자치도 태백시 동태백로 434""",37.115055691510136,129.03727643909966,"['캔', '투명 페트']"
93,강원특별자치도,138,퇴계동행정복지센터,"강원특별자치도 춘천시 퇴계로 46""",37.864489878019,127.726200566684,"['캔', '투명 페트']"
92,강원특별자치도,137,근화동행정복지센터,"강원특별자치도 춘천시 영서로 2487""",37.88071481861263,127.71217875808208,"['캔', '투명 페트']"
91,강원특별자치도,136,소양동행정복지센터,"강원특별자치도 춘천시 금강로 17""",37.8822401631646,127.724715265465,"['캔', '투명 페트']"
90,강원특별자치도,135,후평3동행정복지센터,"강원특별자치도 춘천시 후만로 83""",37.87651827786371,127.7538517493855,"['캔', '투명 페트']"
89,강원특별자치도,134,석사동행정복지센터,"강원특별자치도 춘천시 후석로 48""",37.85852767425313,127.74235406232064,"['캔', '투명 페트']"
409,강원특별자치도,706,근덕면 행정복지센터,"강원특별자치도 삼척시 근덕면 삼척로 3639""",37.37946260565106,129.22587672659037,"['캔', '투명 페트']"
84,강원특별자치도,127,자원순환교실,"강원특별자치도 삼척시 미로면 강원남부로 3920""",37.411284842501225,129.10683370545314,"['캔', '투명 페트']"
347,강원특별자치도,637,태백산소드림도서관,"강원특별자치도 태백시 황지동 274-7""",37.17969844278475,128.98497917972787,"['캔', '투명 페트']"
51,강원특별자치도,83,한림대,"강원특별자치도 춘천시 한림대학길 1""",37.886586,127.7401306,"['캔', '투명 페트']"
410,강원특별자치도,707,원덕읍 행정복지센터,"강원특별자치도 삼척시 원덕읍 호산리 244-3""",37.17703813427566,129.33532349673516,"['캔', '투명 페트']"
580,강원특별자치도,889,원주의료기기테크노밸리,"강원특별자치도 원주시 지정면 기업도시로 200""",37.37186610943613,127.87400561660388,['투명 페트']
596,강원특별자치도,906,인제상남면행정복지센터,"강원특별자치도 인제군 상남면 상남로38번길 10""",37.87406168975858,128.25989925494258,['투명 페트']
595,강원특별자치도,905,현5리경로당,"강원특별자치도 인제군 기린면 현리 774-3""",37.94767575797009,128.31503752607793,['투명 페트']
594,강원특별자치도,904,인제북면행정복지센터,"강원특별자치도 인제군 북면 금강로 55""",38.1245840279046,128.2040798740036,['투명 페트']
634,강원특별자치도,952,DMZ시네마,"강원특별자치도 화천군 상서면 산양리 737""",38.20981667839885,127.66277536530872,"['캔', '투명 페트']"
593,강원특별자치도,903,서화면행정복지센터,"강원특별자치도 인제군 서화면 천도리 702-5""",38.21810269899792,128.20794332145005,['투명 페트']
579,강원특별자치도,888,원주문막생활체육시설,"강원특별자치도 원주시 문막읍 문막리 750""",37.31176616531787,127.82356289680082,['투명 페트']
24,강원특별자치도,42,동내면사무소,"강원특별자치도 춘천시 동내면 동내로 78""",37.8478551,127.7611148,"['캔', '투명 페트']"
25,강원특별자치도,43,효자1동주민센터,"강원특별자치도 춘천시 효자상길 9""",37.8721719,127.7275698,"['캔', '투명 페트']"
26,강원특별자치도,44,춘천시청,"강원특별자치도 춘천시 시청길 11""",37.8805675277616,127.7296109831504,"['캔', '투명 페트']"
27,강원특별자치도,45,신사우동주민센터,"강원특별자치도 춘천시 사우4길 28""",37.9059423,127.7278715,"['캔', '투명 페트']"
28,강원특별자치도,46,약사명동주민센터,"강원특별자치도 춘천시 망대길 9""",37.8765662,127.7248152,"['캔', '투명 페트']"
578,강원특별자치도,887,상지대학교 동악관,"강원특별자치도 원주시 상지대길 83""",37.37000434358833,127.92740097448952,['투명 페트']
633,강원특별자치도,951,풍산1리경로당,"강원특별자치도 화천군 화천읍 풍산리 761-6""",38.1460026049682,127.74111076337697,['투명 페트']
577,강원특별자치도,886,태장2동 행정복지센터,"강원특별자치도 원주시 흥양로50번길 1""",37.38240227146001,127.95286778804038,['투명 페트']
576,강원특별자치도,885,원주동부복합체육센터,"강원특별자치도 원주시 건강로 73""",37.32035886772736,127.98973889039314,['투명 페트']
632,강원특별자치도,950,용신밥상 옆,"강원특별자치도 화천군 화천읍 신읍리 589-10""",38.115890867560886,127.69951014187806,['투명 페트']
527,강원특별자치도,834,구문소동행정복지센터,"강원특별자치도 태백시 장성동 99-42""",37.100111710300006,129.0220267858398,['투명 페트']
536,강원특별자치도,843,철원 서면사무소,"강원특별자치도 철원군 서면 신술2길 40""",38.16468131694298,127.41578581147904,['투명 페트']
528,강원특별자치도,835,장성동주민센터,"강원특별자치도 태백시 장성동 170-142""",37.10045421336464,129.0085052869527,['투명 페트']
529,강원특별자치도,836,상장동행정복지센터,"강원특별자치도 태백시 태백로 1182""",37.15338706961255,128.9909033870489,['투명 페트']
530,강원특별자치도,837,통리장공영주차장,"강원특별자치도 태백시 통동 산 51-13""",37.1681829226084,129.03657182074394,['투명 페트']
532,강원특별자치도,839,화촌면행정복지센터,"강원특별자치도 홍천군 화촌면 성산로 143""",37.77101095670267,127.96709727105092,"['캔', '투명 페트']"
531,강원특별자치도,838,홍천남면행정복지센터,"강원특별자치도 홍천군 남면 양덕원리 349-17""",37.61794715324621,127.767308499398,"['캔', '투명 페트']"
533,강원특별자치도,840,동송읍행정복지센터,"강원특별자치도 철원군 동송읍 이평로 141""",38.2076467049322,127.2084392552458,['투명 페트']
534,강원특별자치도,841,철원읍행정복지센터,"강원특별자치도 철원군 철원읍 화지로11번길 40""",38.21587949647989,127.21421783762705,['투명 페트']
535,강원특별자치도,842,철원군청,"강원특별자치도 철원군 갈말읍 삼부연로 51""",38.14662989254428,127.31250929641983,['투명 페트']
513,강원특별자치도,820,현북면사무소,"강원특별자치도 양양군 현북면 하조대1길 41-8""",38.01906521275921,128.7232311376125,"['캔', '투명 페트']"
195,경기도,268,충훈어린이공원,"경기도 안양시 만안구 석수로178번길 28""",37.4063784906638,126.89711725353,"['캔', '투명 페트']"
197,경기도,270,안양2동 행정복지센터,"경기도 안양시 만안구 안양동 842-2""",37.40530770952167,126.91796084741766,['투명 페트']
222,경기도,296,수노을공원 주차장 입구,"경기도 화성시 새솔동 83""",37.28368061241149,126.81767297259849,"['캔', '투명 페트']"
194,경기도,267,꽃메산어린이공원,"경기도 안양시 만안구 석수동 610-10""",37.407617905391085,126.89928195061675,"['캔', '투명 페트']"
221,경기도,295,송린이음터 도서관,"경기도 화성시 수노을2로 150""",37.27744375041056,126.82249873722384,"['캔', '투명 페트']"
196,경기도,269,친목마을,"경기도 안양시 만안구 박달동 920-1""",37.40711396100653,126.88514413335872,"['캔', '투명 페트']"
223,경기도,297,비봉체육공원 화성야구장,"경기도 화성시 새솔동 167""",37.26304606100333,126.84566672243628,"['캔', '투명 페트']"
218,경기도,292,수노을공원 공용화장실,"경기도 화성시 꽃내음1길 30""",37.28226368160967,126.81618510202752,"['캔', '투명 페트']"
198,경기도,271,금강펜테리움,"경기도 안양시 동안구 학의로 282""",37.40116964016302,126.96996618202036,"['캔', '투명 페트']"
219,경기도,293,해오름공원,"경기도 화성시 새솔동 15""",37.28551054454761,126.82116717575204,"['캔', '투명 페트']"
199,경기도,272,센트럴타워,"경기도 안양시 만안구 안양동 1403""",37.39591365297655,126.93060829268164,"['캔', '투명 페트']"
200,경기도,274,만안구청,"경기도 안양시 만안구 안양로 128""",37.386235639766745,126.932723143,"['캔', '투명 페트']"
201,경기도,275,꽃동산공원,"경기도 안양시 만안구 박달동 94-114""",37.40134266971889,126.9109741121764,"['캔', '투명 페트']"
217,경기도,291,수노을공원 농구장,"경기도 화성시 새솔동 97""",37.28076520412963,126.81731635243978,"['캔', '투명 페트']"
220,경기도,294,새솔동 행정복지센터,"경기도 화성시 새솔동 98""",37.28117275038289,126.81866850217013,"['캔', '투명 페트']"
216,경기도,290,가온공원,"경기도 화성시 새솔동 114""",37.27801917476658,126.82018418582884,"['캔', '투명 페트']"
498,경기도,804,관양1동행정복지센터,"경기도 안양시 동안구 관평로358번길 46""",37.406314253608016,126.96145627135154,"['캔', '투명 페트']"
192,경기도,265,노송공원,"경기도 안양시 만안구 안양동 521-1""",37.38631101652085,126.93062843518884,"['캔', '투명 페트']"
163,경기도,219,롯데마트 시흥배곧점 1층,"경기도 시흥시 서울대학로278번길 67""",37.36878540957944,126.73146317267782,['투명 페트']
164,경기도,220,롯데마트 영통점 지하2층,"경기도 수원시 영통구 봉영로 1579""",37.25292507243592,127.07180216999024,['투명 페트']
165,경기도,221,롯데마트 안산점 1층,"경기도 안산시 상록구 항가울로 422""",37.31801041954781,126.84650206924374,['투명 페트']
166,경기도,222,롯데마트 상록점 1층,"경기도 안산시 상록구 반석로 20""",37.296611997867416,126.86207596279132,['투명 페트']
167,경기도,223,롯데마트 광교점 지하1층,"경기도 수원시 영통구 센트럴타운로 85""",37.2907135761798,127.049404741773,['투명 페트']
174,경기도,230,NS홈쇼핑,"경기도 성남시 분당구 판교로228번길 15""",37.401816825517095,127.10160817258252,"['캔', '투명 페트']"
175,경기도,231,판교환경생태학습원,"경기도 성남시 분당구 대왕판교로645번길 21""",37.3995911866032,127.103817633248,"['캔', '투명 페트']"
182,경기도,254,설봉공원,"경기도 이천시 관고동 356""",37.27896320024419,127.4280370817135,"['캔', '투명 페트']"
193,경기도,266,종합운동장 수영장,"경기도 안양시 동안구 평촌대로 389""",37.40652133895941,126.94914472869866,"['캔', '투명 페트']"
648,경기도,966,송부동행정복지센터,"경기도 군포시 송부로74번길 3-32""",37.31627880086569,126.92369557084989,['투명 페트']
185,경기도,257,호계3동 행정복지센터,"경기도 안양시 동안구 호계동 764-5""",37.36766621267882,126.95879489670394,"['캔', '투명 페트']"
224,경기도,298,비봉실내체육관,"경기도 화성시 비봉면 삼화리 4-8""",37.25723734484444,126.84975360365549,"['캔', '투명 페트']"
186,경기도,258,농수산물센터 서문,"경기도 안양시 동안구 흥안대로 313""",37.381824562468765,126.96949402316228,"['캔', '투명 페트']"
187,경기도,259,농수산물센터 동문,"경기도 안양시 동안구 흥안대로 313""",37.38184061625652,126.9706231360306,"['캔', '투명 페트']"
188,경기도,260,동안구청,"경기도 안양시 동안구 비산동 1111""",37.39191193925903,126.9507101695266,"['캔', '투명 페트']"
189,경기도,261,아르떼웨딩홀,"경기도 안양시 동안구 관양동 1753""",37.39648280379856,126.96446817146034,"['캔', '투명 페트']"
190,경기도,263,안양9동 꿈나눔터,"경기도 안양시 만안구 병목안로142번길 8""",37.39120695274017,126.90903530384784,"['캔', '투명 페트']"
191,경기도,264,갈뫼어린이공원,"경기도 안양시 만안구 석수동 295-1""",37.410627547171,126.90785686056483,"['캔', '투명 페트']"
647,경기도,965,대야동행정복지센터,"경기도 군포시 대야2로 139""",37.33025727327227,126.9155150269904,['투명 페트']
646,경기도,964,군포2동행정복지센터,"경기도 군포시 고산로 263""",37.346447251136816,126.94309089141996,['투명 페트']
635,경기도,953,금정역7번출구,"경기도 군포시 산본동 100""",37.372651073854456,126.9424529848105,['투명 페트']
229,경기도,304,미사1동 행정복지센터,"경기도 하남시 미사강변남로 59""",37.5603159330941,127.188807992732,['투명 페트']
602,경기도,912,북한산국립공원 오봉탐방지원센터,"경기도 양주시 장흥면 울대리 산 69-2""",37.7122774946287,126.98204413110476,['투명 페트']
403,경기도,698,수지구청,"경기도 용인시 수지구 풍덕천동 791""",37.32261971697652,127.09787418230596,['투명 페트']
404,경기도,699,동백2동행정복지센터,"경기도 용인시 기흥구 동백중앙로 214""",37.27252646319501,127.15146345007648,['투명 페트']
408,경기도,705,백마고등학교(포인트적립불가),"경기도 고양시 일산동구 백석로 155""",37.65206208094053,126.79386569625932,"['캔', '투명 페트']"
162,경기도,218,롯데마트 오산점 1층,"경기도 오산시 경기대로 271""",37.1494205306333,127.073027965952,['투명 페트']
414,경기도,712,성남동행정복지센터,"경기도 성남시 중원구 광명로 91""",37.43516366345636,127.13907051266769,['투명 페트']
420,경기도,721,덕풍2동행정복지센터,"경기도 하남시 덕풍동 693""",37.54233106885146,127.19792522296925,['투명 페트']
424,경기도,725,덕풍동 도시재생 현장지원센터,"경기도 하남시 하남대로833번길 28""",37.54159703465373,127.20437296016696,['투명 페트']
547,경기도,854,회천3동행정복지센터,"경기도 양주시 덕정동 206-6""",37.837607751537504,127.06860772942126,['투명 페트']
546,경기도,853,양주2동행정복지센터,"경기도 양주시 고읍로 77""",37.79684088658652,127.08054002619454,['투명 페트']
526,경기도,833,흥선동 에코리움,"경기도 의정부시 가능동 678""",37.74690312346038,127.03277982881131,['투명 페트']
518,경기도,825,청목초등학교(포인트 적립 불가),"경기도 화성시 동탄순환대로21길 10""",37.1959423004088,127.11752844435937,"['캔', '투명 페트']"
509,경기도,816,신성중학교(포인트 적립 불가),"경기도 안양시 만안구 소곡로 93""",37.384468324918814,126.91978738777333,"['캔', '투명 페트']"
507,경기도,814,송산사지근린공원,"경기도 의정부시 민락동 878""",37.74851432660562,127.10979323314184,['투명 페트']
495,경기도,801,양주시 스마트그린포트,"경기도 양주시 옥정동 975-1""",37.837490103670085,127.0895190671872,['투명 페트']
603,경기도,914,관곡어린이공원(제47호),"경기도 용인시 기흥구 구갈동 407-1""",37.274918681706616,127.1108352501852,['투명 페트']
389,경기도,683,중앙예닮학교,"경기도 용인시 수지구 포은대로 91-19""",37.30240646041947,127.07050130809624,"['캔', '투명 페트']"
604,경기도,915,양주시남면행정복지센터,"경기도 양주시 남면 개나리17길 6""",37.89807018254881,126.9768657198717,['투명 페트']
605,경기도,916,백석읍행정복지센터,"경기도 양주시 백석읍 중앙로223번길 46""",37.79470519915461,126.98535368277952,['투명 페트']
230,경기도,305,수내1동 행정복지센터,"경기도 성남시 분당구 내정로173번길 21""",37.37536314638901,127.11820014581951,['투명 페트']
239,경기도,514,오산근린공원,"경기도 오산시 오산천로 265""",37.155475338326525,127.06980177742464,"['캔', '투명 페트']"
240,경기도,515,오산대 맞은편 탄천 화장실 옆,"경기도 오산시 청학동 33-4""",37.15259796274242,127.06309557976076,"['캔', '투명 페트']"
246,경기도,521,회천2동 주민센터 입구,"경기도 양주시 덕계동 467-8""",37.82167384384154,127.04662687083834,['투명 페트']
247,경기도,522,광적면 행정복지센터 근처 쉼터,"경기도 양주시 광적면 가납리 848-5""",37.82499073553629,126.98390234655255,['투명 페트']
644,경기도,962,군포시민체육광장,"경기도 군포시 산본로 267""",37.35518438629581,126.93745762751868,['투명 페트']
643,경기도,961,재궁동 행정복지센터,"경기도 군포시 금정동 850-4""",37.35845376833235,126.93919039676769,['투명 페트']
645,경기도,963,1.2대야송부행정복지센터,"경기도 군포시 군포로 531""",37.353467440404735,126.94558564983204,['투명 페트']
638,경기도,956,궁내동행정복지센터,"경기도 군포시 산본동 1148-7""",37.35963978722517,126.92198673346444,['투명 페트']
637,경기도,955,군포시다함께돌봄센터 광정동점,"경기도 군포시 광정로 104""",37.36190291457972,126.92798124901331,['투명 페트']
636,경기도,954,군포시청,"경기도 군포시 청백리길 6""",37.36122047925793,126.9359766993556,['투명 페트']
496,경기도,802,양주1동행정복지센터,"경기도 양주시 외미로64번길 45""",37.7733608727326,127.0439319915168,['투명 페트']
280,경기도,565,신갈동주민자치센터,"경기도 용인시 기흥구 신갈로58번길 9""",37.27224629818964,127.10680340979432,['투명 페트']
324,경기도,613,성남시여성복지회관,"경기도 성남시 수정구 산성대로475번길 7""",37.45403834198146,127.15989553312257,['투명 페트']
326,경기도,615,성남종합운동장,"경기도 성남시 중원구 제일로 60""",37.43260963190999,127.13877484304906,['투명 페트']
336,경기도,625,학운공원,"경기도 안양시 동안구 비산동 1100""",37.39897905308918,126.94745011416148,"['캔', '투명 페트']"
261,경기도,539,Circle(SK가스 충전소),"경기도 성남시 분당구 대왕판교로 131""",37.355141838092486,127.10122918298748,"['캔', '투명 페트']"
158,경기도,214,롯데마트 이천점 정문,"경기도 이천시 안흥동 474""",37.27419452816988,127.45461064228596,['투명 페트']
325,경기도,614,신흥3동행정복지센터,"경기도 성남시 수정구 공원로349번길 8""",37.44345220128066,127.1489680835139,['투명 페트']
22,경기도,40,이수흥공원,"경기도 이천시 창전동""",37.2823774,127.4420097,"['캔', '투명 페트']"
109,경기도,156,중앙공원 음수대,"경기도 안양시 동안구 평촌동 895""",37.38946413010487,126.9584498456565,"['캔', '투명 페트']"
110,경기도,157,중앙공원 화장실,"경기도 안양시 동안구 평촌동 895""",37.38921153298837,126.95757483191429,"['캔', '투명 페트']"
111,경기도,158,동안청소년수련관,"경기도 안양시 동안구 비산동 1126""",37.39167241727149,126.94894020072968,"['캔', '투명 페트']"
112,경기도,159,평촌미관광장,"경기도 안양시 동안구 관양동 1608-1""",37.394214217439306,126.96360250079702,"['캔', '투명 페트']"
113,경기도,160,종합운동장 빙상장 입구,"경기도 안양시 동안구 평촌대로 389""",37.40423488688662,126.94888367568242,"['캔', '투명 페트']"
114,경기도,161,안양시청,"경기도 안양시 동안구 관양동 1590""",37.39446646506174,126.95679547062086,"['캔', '투명 페트']"
115,경기도,162,어린이교통공원,"경기도 안양시 동안구 호계동 1112""",37.37987183489852,126.96250292529076,"['캔', '투명 페트']"
116,경기도,163,석수역,"경기도 안양시 만안구 석수동 424-1""",37.43361467664962,126.90214531101353,"['캔', '투명 페트']"
117,경기도,164,신기어린이공원,"경기도 안양시 동안구 동안로 26""",37.38194922989505,126.95742649219494,"['캔', '투명 페트']"
118,경기도,165,관악역,"경기도 안양시 만안구 석수동 104-240""",37.41905757584296,126.90914566225425,"['캔', '투명 페트']"
119,경기도,166,안양3동 행정복지센터,"경기도 안양시 만안구 안양동 1195-1""",37.39602501251548,126.9148765968536,"['캔', '투명 페트']"
120,경기도,167,명학공원,"경기도 안양시 만안구 안양동 572""",37.384124835573424,126.9324483863033,"['캔', '투명 페트']"
121,경기도,168,박달2동 행정복지센터,"경기도 안양시 만안구 박달동 141-2""",37.40216897496318,126.90470483161654,"['캔', '투명 페트']"
122,경기도,169,만안종합사회복지관,"경기도 안양시 만안구 박달로 547-1""",37.40278170542497,126.91354469386242,"['캔', '투명 페트']"
123,경기도,170,병목안캠핑장,"경기도 안양시 만안구 병목안로247번길 37""",37.38255350537487,126.9101861786949,"['캔', '투명 페트']"
124,경기도,171,호계3동 공영주차장,"경기도 안양시 동안구 호계동 966-46""",37.368741822822656,126.95570670406744,"['캔', '투명 페트']"
125,경기도,172,냉천어린이공원,"경기도 안양시 만안구 안양동 627-311""",37.39504795957643,126.9222239101574,"['캔', '투명 페트']"
147,경기도,198,세븐일레븐 판교도서관점,"경기도 성남시 분당구 판교동 613-1""",37.3911865555337,127.090539505419,['투명 페트']
72,경기도,111,군포국민체육센터,"경기도 군포시 군포로 339""",37.33859957172142,126.9365787609812,"['캔', '투명 페트']"
108,경기도,155,중앙공원 관리사무소,"경기도 안양시 동안구 평촌동 895""",37.39055525537293,126.9610578110261,"['캔', '투명 페트']"
21,경기도,39,고양관광정보센터,"경기도 고양시 일산동구 중앙로 1271-1""",37.6594810482606,126.7726919751048,"['캔', '투명 페트']"
150,경기도,201,세븐일레븐 광명여성회관점,"경기도 광명시 충현로4번길 10""",37.4352168943163,126.88034141443,['투명 페트']
107,경기도,154,중앙공원 인라인스케이트장,"경기도 안양시 동안구 시민대로 지하 238""",37.39208134050094,126.95771437376142,"['캔', '투명 페트']"
415,경상남도,715,함양읍행정복지센터,"경상남도 함양군 함양읍 운림리 40-2""",35.51966926020203,127.72648997683318,['투명 페트']
416,경상남도,716,남지읍행정복지센터,"경상남도 창녕군 남지읍 낙동로 483""",35.38917673561014,128.4771093907675,['투명 페트']
417,경상남도,717,창녕읍행정복지센터,"경상남도 창녕군 창녕읍 종로 38-9""",35.54124326145761,128.50046786801076,['투명 페트']
99,경상남도,146,성산스포츠파크,"경상남도 창원시 성산구 중앙동 1""",35.2343556762819,128.6668468398334,"['캔', '투명 페트']"
520,경상남도,827,청안공원,"경상남도 창원시 진해구 용원동 1207-1""",35.103466156547874,128.80659820108448,['투명 페트']
510,경상남도,817,합천영상테마파크,"경상남도 합천군 용주면 합천호수로 757""",35.54824121169576,128.07244580642669,['투명 페트']
521,경상남도,828,창원의집,"경상남도 창원시 의창구 사림동 70""",35.24412588694507,128.6807813962187,['투명 페트']
522,경상남도,829,진동종합복지타운,"경상남도 창원시 마산합포구 진동면 신서촌로 15""",35.11597892503182,128.48439621614386,['투명 페트']
609,경상남도,922,창녕교육지원청 통합지원센터,"경상남도 창녕군 창녕읍 교하리 5-3""",35.533933973873296,128.49996789344956,"['캔', '투명 페트']"
101,경상남도,148,마산야구장,"경상남도 창원시 마산합포구 산호동 31-2""",35.220522780675815,128.58252670985718,"['캔', '투명 페트']"
381,경상남도,674,밀양문화체육회관,"경상남도 밀양시 삼문동 4-122""",35.48821778747901,128.75717042415738,"['캔', '투명 페트']"
53,경상남도,85,연지공원,"경상남도 김해시 금관대로1368번길 9""",35.2446931,128.8698703,"['캔', '투명 페트']"
382,경상남도,675,밀양시립도서관,"경상남도 밀양시 중앙로 265""",35.486784393266944,128.75504022975989,['투명 페트']
100,경상남도,147,의창스포츠센터,"경상남도 창원시 의창구 도계동 467""",35.2564835183925,128.63393178372783,"['캔', '투명 페트']"
385,경상남도,678,밀양파크골프장,"경상남도 밀양시 삼문동 630-2""",35.48227382065473,128.74293287563756,"['캔', '투명 페트']"
103,경상남도,150,진해루,"경상남도 창원시 진해구 경화동 1007-15""",35.146952866270915,128.6829554686016,"['캔', '투명 페트']"
583,경상남도,892,합천군민체육관,"경상남도 합천군 합천읍 장수로 1""",35.56160312538942,128.1533765494947,['캔']
384,경상남도,677,밀양종합사회복지관,"경상남도 밀양시 삼문동 34-13""",35.4833678277244,128.7589846790016,['투명 페트']
102,경상남도,149,합포스포츠센터,"경상남도 창원시 마산합포구 드림베이대로 56""",35.1765942142606,128.567454571877,"['캔', '투명 페트']"
477,경상남도,783,하동읍행정복지센터,"경상남도 하동군 하동읍 읍내리 1198-1""",35.07186753845991,127.74528148238,['투명 페트']
383,경상남도,676,밀양시보건소,"경상남도 밀양시 삼문중앙로 41""",35.48542971301051,128.7563246769572,['투명 페트']
244,경상북도,519,포은고등학교,"경상북도 영천시 금호읍 성천앞길 112-53""",35.94001965697532,128.8781323425169,"['캔', '투명 페트']"
599,경상북도,909,이마트 안동점,"경상북도 안동시 옥동1길 2""",36.55877924760598,128.69951728552306,['투명 페트']
394,경상북도,688,호명면 호반 2차 버스승강장,"경상북도 예천군 호명면 산합리 1388""",36.57818541753206,128.48123777494135,"['캔', '투명 페트']"
598,경상북도,908,옥동행정복지센터,"경상북도 안동시 옥동 792-1""",36.56142094306259,128.70161075014295,['투명 페트']
581,경상북도,890,서구동행정복지센터,"경상북도 안동시 안기천로 86""",36.564740619110985,128.7175165900633,['투명 페트']
601,경상북도,911,영천시종합스포츠센터,"경상북도 영천시 교촌동 336-1""",35.97094767554444,128.92303570893355,"['캔', '투명 페트']"
419,경상북도,720,안계면행정복지센터,"경상북도 의성군 안계면 안계길 114""",36.38343333782756,128.43969510297228,['투명 페트']
73,경상북도,112,김천시청,"경상북도 김천시 시청1길 1""",36.1398881671927,128.113624475917,"['캔', '투명 페트']"
418,경상북도,719,"버스정류장(안계,토매 방면)","경상북도 의성군 안계면 용기리 1116-81""",36.38298414492413,128.44051705075975,['투명 페트']
393,경상북도,687,대심어린이공원,"경상북도 예천군 예천읍 대심리 73-5""",36.64913537409112,128.4420600515174,"['캔', '투명 페트']"
214,경상북도,288,예천군 제1공영주차장,"경상북도 예천군 호명면 산합리 1450""",36.57598533192159,128.48931194767746,"['캔', '투명 페트']"
3,경상북도,6,형곡시립도서관,"경상북도 구미시 경은로 85 구미시립도서관""",36.1131072,128.3361809,"['캔', '투명 페트']"
322,경상북도,610,송천동분리수거장 1,"경상북도 안동시 경동로 1375""",36.54468413642744,128.79515584981854,['투명 페트']
542,경상북도,849,예천아이사랑안심케어센터,"경상북도 예천군 예천읍 서본리 49-2""",36.65620954216841,128.45070248655756,"['캔', '투명 페트']"
543,경상북도,850,백전천생태공원,"경상북도 예천군 예천읍 백전리 447-1""",36.66313430429399,128.4599029099776,"['캔', '투명 페트']"
544,경상북도,851,예천군 복합커뮤니티센터,"경상북도 예천군 호명면 산합리 1124""",36.57770101708396,128.47361207036437,"['캔', '투명 페트']"
141,경상북도,190,문덕8공원,"경상북도 포항시 남구 오천읍 문덕리 197-1""",35.96420640383601,129.40404075615228,"['캔', '투명 페트']"
140,경상북도,189,원동13어린이공원,"경상북도 포항시 남구 오천읍 원리 903-4""",35.9695139324668,129.40872109264205,"['캔', '투명 페트']"
139,경상북도,188,원동12어린이공원,"경상북도 포항시 남구 오천읍 원리 919""",35.968807066679005,129.40656880288145,"['캔', '투명 페트']"
545,경상북도,852,예천군 제2공영주차장,"경상북도 예천군 호명면 산합리 1448""",36.57602129833092,128.49111965279818,"['캔', '투명 페트']"
213,경상북도,287,예천읍 행정복지센터,"경상북도 예천군 예천읍 서본리 1-6""",36.65691694617921,128.45291329786977,"['캔', '투명 페트']"
5,경상북도,8,봉곡테마공원,"경상북도 구미시 봉곡동""",36.150563,128.3138658,"['캔', '투명 페트']"
7,경상북도,10,휴먼시아아파트,"경상북도 의성군 의성읍 동서1길 114 상리휴먼시아""",36.3501295,128.7082619,"['캔', '투명 페트']"
4,경상북도,7,선주원남동주민센터,"경상북도 구미시 봉곡로 42 선주원남동사무소""",36.1425881,128.3101952,"['캔', '투명 페트']"
323,경상북도,612,송천동분리수거장 2,"경상북도 안동시 송천동 478-6""",36.54061675866405,128.7972000833728,['투명 페트']
514,경상북도,821,북경주행정복지센터,"경상북도 경주시 안강읍 안강리 346-27""",35.98980970351883,129.227003950398,['투명 페트']
461,경상북도,766,경산시립박물관,"경상북도 경산시 박물관로 46""",35.81366186015631,128.7628071284771,['투명 페트']
6,경상북도,9,원호민원봉사실,"경상북도 구미시 문장로 182""",36.1496101,128.3310628,"['캔', '투명 페트']"
2,경상북도,5,상모사곡동주민센터,"경상북도 구미시 상사서로 199 상모사곡동사무소""",36.099713,128.3578956,"['캔', '투명 페트']"
373,경상북도,663,세화고등학교 매점,"경상북도 포항시 북구 아치로 94""",36.05441549705825,129.3520537223666,"['캔', '투명 페트']"
372,경상북도,662,세화고등학교 정문,"경상북도 포항시 북구 우현동 318-17""",36.05273827349758,129.3520093399189,"['캔', '투명 페트']"
459,경상북도,764,지좌동행정복지센터,"경상북도 김천시 영남대로 1940""",36.11997377709755,128.1424821395249,"['캔', '투명 페트']"
515,경상북도,822,경주시민운동장 입구,"경상북도 경주시 황성공원로 30""",35.8599898445183,129.21062779046147,['투명 페트']
458,경상북도,763,대곡동행정복지센터,"경상북도 김천시 부곡동 1330""",36.12446763206349,128.0891077639007,"['캔', '투명 페트']"
457,경상북도,762,율곡동행정복지센터,"경상북도 김천시 율곡동 369""",36.1215146455393,128.18333490543102,['투명 페트']
346,경상북도,636,안동시청 시의회 본관,"경상북도 안동시 퇴계로 115""",36.56810137262705,128.7301378701682,['투명 페트']
8,경상북도,11,의성초등학교,"경상북도 의성군 의성읍 후죽리 530-1""",36.3520845,128.6955267,"['캔', '투명 페트']"
460,경상북도,765,경산시립도서관,"경상북도 경산시 하양읍 금락리 97""",35.91315088518376,128.81295949604166,['투명 페트']
1,경상북도,4,임오동주민센터,"경상북도 구미시 임은길 61 임오동사무소""",36.0892718,128.3692414,"['캔', '투명 페트']"
516,경상북도,823,경주시립도서관,"경상북도 경주시 원화로 431-18""",35.85959426758006,129.21851987641912,['투명 페트']
181,광주광역시,253,월산4동 행정복지센터,"광주광역시 남구 월산동 949""",35.14641584475447,126.89075753725002,"['캔', '투명 페트']"
65,광주광역시,98,화정2동주민센터,"광주광역시 서구 화운로 94 유니버시아드 힐스테이트 1단지""",35.1465822,126.8821979,"['캔', '투명 페트']"
66,광주광역시,99,푸른길광장,"광주광역시 남구 주월동 941-203""",35.1260653,126.896671,"['캔', '투명 페트']"
335,광주광역시,624,북구종합체육관,"광주광역시 북구 첨단연신로29번길 15""",35.20051237082864,126.8614670081496,['투명 페트']
334,광주광역시,623,전남대스포츠센터 버스승강장,"광주광역시 북구 용봉동 162""",35.17503136023044,126.9124881375142,['투명 페트']
241,광주광역시,516,벽산블루밍아파트 3단지 301동 앞 보도,"광주광역시 북구 대자로 55""",35.175949092809184,126.87913090639144,['투명 페트']
333,광주광역시,622,북구반다비체육센터,"광주광역시 북구 필문대로 55""",35.1642952982615,126.928278074984,['투명 페트']
275,광주광역시,558,스트리트푸드존,"광주광역시 남구 봉선동 1132-2""",35.13396965795903,126.90614077114972,"['캔', '투명 페트']"
233,광주광역시,308,전남대학교 9호관,"광주광역시 북구 용봉로 77""",35.18100430757091,126.90543625280527,"['캔', '투명 페트']"
23,광주광역시,41,상무시민공원,"광주광역시 서구 치평동 1162""",35.153570941986715,126.84218149335008,"['캔', '투명 페트']"
471,광주광역시,777,오치2동행정복지센터,"광주광역시 북구 오치동 861-58""",35.18994629298682,126.9004850062225,['투명 페트']
405,대구광역시,702,상중이동행정복지센터,"대구광역시 서구 당산로 343""",35.8669813077924,128.54610648185678,['투명 페트']
582,대구광역시,891,감삼동행정복지센터,"대구광역시 달서구 감삼동 136-2""",35.85101443889616,128.5423069233852,['투명 페트']
406,대구광역시,703,내당4동행정복지센터,"대구광역시 서구 내당동 354-7""",35.85892301094318,128.55167866226398,['투명 페트']
320,대구광역시,606,금정어린이공원,"대구광역시 북구 태전동 974""",35.926991801617454,128.54585873887407,"['캔', '투명 페트']"
321,대구광역시,607,대현어린이공원,"대구광역시 북구 대현동 112-41""",35.88458650015691,128.6099579620399,"['캔', '투명 페트']"
319,대구광역시,605,대구 남구청,"대구광역시 남구 이천로 51""",35.84589957823974,128.59736864291798,"['캔', '투명 페트']"
614,대구광역시,932,비산7동 행정복지센터,"대구광역시 서구 비산동 1890-2""",35.888018420031834,128.55362771083884,['투명 페트']
613,대구광역시,931,내당1동 행정복지센터,"대구광역시 서구 서대구로4길 35""",35.86062315349558,128.560781064675,['투명 페트']
612,대구광역시,930,평리6동 행정복지센터,"대구광역시 서구 서대구로41길 41""",35.87662497970944,128.55001976683457,['투명 페트']
611,대구광역시,929,평리2동 행정복지센터,"대구광역시 서구 국채보상로60길 6""",35.87117282292541,128.56359259049933,['투명 페트']
610,대구광역시,928,서구립 원고개도서관,"대구광역시 서구 달서로43길 12""",35.881922801850635,128.57089625111013,['투명 페트']
608,대구광역시,921,남산어린이공원,"대구광역시 중구 남산로1길 32""",35.858232487069074,128.58130748957905,['투명 페트']
607,대구광역시,920,남산2동행정복지센터,"대구광역시 중구 남산동 573-1""",35.86404282609187,128.5894851109833,['투명 페트']
567,대구광역시,875,경북대 버스정류장 앞,"대구광역시 북구 산격동 1370-1""",35.89307926693431,128.61016038647884,['투명 페트']
566,대구광역시,874,무지개어린이공원,"대구광역시 북구 대학로17길 11""",35.89314213049734,128.60866381480707,['투명 페트']
281,대구광역시,566,한국환경공단 대구경북환경본부,"대구광역시 수성구 무학로 209""",35.83052287630598,128.63130657733922,['투명 페트']
407,대구광역시,704,대구 서구청,"대구광역시 서구 국채보상로 257""",35.871735096851474,128.55881234592667,['투명 페트']
517,대구광역시,824,동천초등학교(포인트 적립 불가),"대구광역시 수성구 상록로16길 20""",35.86570729789959,128.62570332885193,"['캔', '투명 페트']"
85,대구광역시,128,군위 동부 제1호 어린이공원,"대구광역시 군위군 군위읍 동부리 376-3""",36.23777645311623,128.5707875563465,"['캔', '투명 페트']"
86,대구광역시,129,LH천년나무아파트,"대구광역시 군위군 군위읍 동산새길 50""",36.231854277857465,128.5688783761987,"['캔', '투명 페트']"
443,대구광역시,748,죽전동행정복지센터,"대구광역시 달서구 죽전1길 176""",35.857501303422644,128.5390812123597,['투명 페트']
444,대구광역시,749,장기동행정복지센터,"대구광역시 달서구 장기동 817-3""",35.84321414179786,128.53021369756627,['투명 페트']
445,대구광역시,750,본리동행정복지센터,"대구광역시 달서구 본리동 110-4""",35.84106674502007,128.54292774971077,['투명 페트']
446,대구광역시,751,청소년수련관 공용주차장,"대구광역시 달서구 상화로 406""",35.80787348978892,128.55840392624145,['투명 페트']
447,대구광역시,752,능금어린이공원,"대구광역시 달서구 명덕로2길 57""",35.85941299567297,128.5710054013832,['투명 페트']
448,대구광역시,753,유천동행정복지센터,"대구광역시 달서구 유천동 606""",35.817225183992484,128.5141722514206,['투명 페트']
449,대구광역시,754,월성1동행정복지센터,"대구광역시 달서구 월성동 1396-3""",35.81928676302418,128.52271725235033,['투명 페트']
450,대구광역시,755,월성2동행정복지센터,"대구광역시 달서구 월성동 86-3""",35.83091270717219,128.52814045888098,['투명 페트']
451,대구광역시,756,달서구노인종합복지관,"대구광역시 달서구 본동 804-2""",35.83350397442265,128.54203706565733,['투명 페트']
452,대구광역시,757,송현2동행정복지센터,"대구광역시 달서구 송현동 528-3""",35.832601204669494,128.54549441921338,['투명 페트']
453,대구광역시,758,월곡역사공원,"대구광역시 달서구 상인동 1530""",35.81842153926616,128.5446164737241,['투명 페트']
454,대구광역시,759,상인2동행정복지센터,"대구광역시 달서구 상원로 27""",35.81259088655533,128.5361920293517,['투명 페트']
455,대구광역시,760,도원동행정복지센터,"대구광역시 달서구 한실로 53""",35.80749653934275,128.5323518879029,['투명 페트']
456,대구광역시,761,두류3동행정복지센터,"대구광역시 달서구 두류동 483-8""",35.85358703240246,128.5556010919812,['투명 페트']
479,대구광역시,785,중동행정복지센터,"대구광역시 수성구 중동 44-6""",35.84728334037656,128.61519139066007,['투명 페트']
480,대구광역시,786,상동행정복지센터,"대구광역시 수성구 상동 400""",35.83219007743174,128.6156268061869,['투명 페트']
481,대구광역시,787,수성구립무학숲도서관,"대구광역시 수성구 지산동 888-1""",35.83530042458795,128.6306989042572,['투명 페트']
482,대구광역시,788,에덴테마어린이공원 ,"대구광역시 수성구 지산동 1272-1""",35.82145511364238,128.63230212869917,['투명 페트']
541,대구광역시,848,복현어울림쉼터,"대구광역시 북구 복현동 603-2""",35.89170451518761,128.61539843650863,['투명 페트']
539,대구광역시,846,신용보증기금,"대구광역시 동구 신서동 1157""",35.87744189061068,128.72802725225026,['투명 페트']
442,대구광역시,747,용산1동행정복지센터,"대구광역시 달서구 용산로 212-7""",35.85665655353473,128.531141756148,['투명 페트']
441,대구광역시,746,용산2동행정복지센터,"대구광역시 달서구 용산동 499-7""",35.85854352367828,128.52288665251783,['투명 페트']
430,대구광역시,731,대구 중구 보건소,"대구광역시 중구 태평로3가 174-1""",35.87753887039087,128.5830669511672,['투명 페트']
630,대구광역시,948,무태조야동행정복지센터,"대구광역시 북구 서변동 1777""",35.92134694101869,128.59724790231184,['투명 페트']
427,대구광역시,728,서문시장,"대구광역시 중구 큰장로26길 45""",35.86881671775273,128.58077325437412,['투명 페트']
260,대구광역시,538,진천동 행정복지센터,"대구광역시 달서구 진천로9길 33""",35.81228113070092,128.52264707595245,['투명 페트']
259,대구광역시,537,송현1동 행정복지센터,"대구광역시 달서구 중흥로8길 41""",35.8291713000705,128.55482832349665,['투명 페트']
258,대구광역시,536,성당동 행정복지센터,"대구광역시 달서구 야외음악당로 38""",35.84061872603643,128.5532200813586,['투명 페트']
257,대구광역시,535,이곡2동 행정복지센터,"대구광역시 달서구 이곡동 1191-3""",35.85575335091988,128.5009569938092,['투명 페트']
428,대구광역시,729,대구 중구 재활용센터,"대구광역시 중구 태평로51길 77""",35.87385480126191,128.60922037846717,['투명 페트']
631,대구광역시,949,복현2동행정복지센터,"대구광역시 북구 복현동 산 107-3""",35.89548733049855,128.62555904344154,['투명 페트']
623,대구광역시,941,강북노인복지관,"대구광역시 북구 관음동 1372""",35.93637380994684,128.54664533842904,['투명 페트']
624,대구광역시,942,읍내동행정복지센터,"대구광역시 북구 읍내동 660-2""",35.94596296772416,128.55040621175274,['투명 페트']
625,대구광역시,943,함지노인복지관,"대구광역시 북구 구암동 773-1""",35.943023258935675,128.5704841941427,['투명 페트']
622,대구광역시,940,태전1동행정복지센터,"대구광역시 북구 태전동 255-15""",35.92423341591628,128.54312667173122,['투명 페트']
627,대구광역시,945,침산3동행정복지센터,"대구광역시 북구 성북로 55""",35.89202207844333,128.5894075131436,['투명 페트']
628,대구광역시,946,노원동행정복지센터,"대구광역시 북구 노원동2가 211""",35.89024884715041,128.5762656540257,['투명 페트']
629,대구광역시,947,고성동행정복지센터,"대구광역시 북구 고성로31길 21""",35.88184698905884,128.5837008157371,['투명 페트']
439,대구광역시,744,이곡1동행정복지센터,"대구광역시 달서구 이곡동 672-2""",35.85154864898369,128.5107263885789,['투명 페트']
440,대구광역시,745,신당동행정복지센터,"대구광역시 달서구 신당동 1750-1""",35.85876459197745,128.49922319227466,['투명 페트']
626,대구광역시,944,침산2동행정복지센터,"대구광역시 북구 침산동 5-1""",35.88729355893834,128.59686259170655,['투명 페트']
97,대전광역시,143,[기부형] 대청댐 물문화관,"대전광역시 대덕구 대청로 618-136""",36.4744377880216,127.481556455353,['투명 페트']
497,대전광역시,803,대전 대신고등학교(포인트 적립 불가),"대전광역시 서구 오량1길 98""",36.3090299032432,127.38084504889738,"['캔', '투명 페트']"
378,대전광역시,668,기성동행정복지센터,"대전광역시 서구 흑석1길 16""",36.25581454468622,127.34141705891614,['투명 페트']
401,대전광역시,696,예정어린이공원,"대전광역시 서구 내동 16-1""",36.331504202414415,127.37835932842714,['투명 페트']
377,대전광역시,667,대전서구국민체육센터,"대전광역시 서구 정림서로 181""",36.30403902443406,127.36292604123229,['투명 페트']
400,대전광역시,695,만년동행정복지센터,"대전광역시 서구 만년로 19""",36.36748044584128,127.37507917535116,['투명 페트']
399,대전광역시,693,마치광장,"대전광역시 서구 관저동 1538""",36.29763056327175,127.33871299913908,['투명 페트']
468,대전광역시,773,갈마동건능골경로당,"대전광역시 서구 갈마동 402-1""",36.34477290937215,127.37153647707308,['투명 페트']
469,대전광역시,774,둔산1동행정복지센터,"대전광역시 서구 둔산동 1402""",36.35244290141649,127.3861476733976,['투명 페트']
465,대전광역시,770,비래동행정복지센터,"대전광역시 대덕구 비래동 140-5""",36.35501342363965,127.44992309009103,"['캔', '투명 페트']"
375,대전광역시,665,들말어린이공원,"대전광역시 서구 가장동 405""",36.329180108743,127.38231019822,['투명 페트']
374,대전광역시,664,변동주민자치문화센터,"대전광역시 서구 변동 15-23""",36.329783511780604,127.37889395794,['투명 페트']
379,대전광역시,669,도안동행정복지센터,"대전광역시 서구 원도안로242번길 33""",36.32355296127041,127.34660958830554,['투명 페트']
398,대전광역시,692,문정어린이공원,"대전광역시 서구 둔산동 2008""",36.34976301507386,127.39884269224092,['투명 페트']
376,대전광역시,666,도솔청소년문화의집 앞,"대전광역시 서구 배재로197번길 41""",36.325552589063854,127.3680429155691,['투명 페트']
572,대전광역시,880,도솔마을 어울림플랫폼,"대전광역시 서구 도마동 105-10""",36.31726706184633,127.37502776811466,['투명 페트']
263,대전광역시,542,가양2동행정복지센터,"대전광역시 동구 흥룡로 33""",36.34902784172126,127.44740161408215,['투명 페트']
133,대전광역시,182,갈마공원,"대전광역시 서구 갈마동 820""",36.35526460107271,127.37378111787004,['투명 페트']
287,대전광역시,572,관평재활용정거장,"대전광역시 유성구 관평동 805""",36.426804529539176,127.3884085243948,"['캔', '투명 페트']"
286,대전광역시,571,지족재활용정거장,"대전광역시 유성구 지족동 1004""",36.386380461489615,127.31834738785555,['투명 페트']
285,대전광역시,570,유성구종합사회복지관,"대전광역시 유성구 도안대로589번길 27""",36.35292024822744,127.3394926851879,['투명 페트']
284,대전광역시,569,어은어린이공원,"대전광역시 유성구 어은동 108-14""",36.36238365675739,127.3553945317723,['투명 페트']
132,대전광역시,181,서구청,"대전광역시 서구 둔산동 1300""",36.35544032040138,127.38443561145569,['투명 페트']
131,대전광역시,180,용문동 행정복지센터,"대전광역시 서구 용문동 589-7""",36.339144000449664,127.39162632890093,['투명 페트']
130,대전광역시,179,유등노인복지관,"대전광역시 서구 도마동 413-3""",36.32714179464708,127.37428992050116,['투명 페트']
129,대전광역시,178,복수동행정복지센터,"대전광역시 서구 복수동 614""",36.29987565909405,127.37887171961302,['투명 페트']
283,대전광역시,568,성남다목적체육관,"대전광역시 동구 성남동 537""",36.3426119654251,127.4307145586168,['투명 페트']
318,대전광역시,604,월평2동행정복지센터,"대전광역시 서구 월평동 218-8""",36.3637051478696,127.37416410496478,['투명 페트']
282,대전광역시,567,상소오토캠핑장,"대전광역시 동구 산내로 748""",36.23705567413938,127.46926426145517,"['캔', '투명 페트']"
202,대전광역시,276,아름드리 덕암동주민커뮤니티센터,"대전광역시 대덕구 신탄진로681번길 10""",36.43908748752816,127.42602190994654,"['캔', '투명 페트']"
203,대전광역시,277,관저동 광장,"대전광역시 서구 관저동 1681""",36.30626498114781,127.3343273183502,['투명 페트']
204,대전광역시,278,도안동 광장,"대전광역시 서구 도안동 846""",36.33093418217129,127.33855359946274,['투명 페트']
205,대전광역시,279,월평주차장,"대전광역시 서구 월평로 53-3""",36.35628354432233,127.36261415142594,['투명 페트']
206,대전광역시,280,온천2동 행정복지센터,"대전광역시 유성구 장대로 120""",36.36551765962494,127.33345243816116,['투명 페트']
207,대전광역시,281,회덕동 행정복지센터,"대전광역시 대덕구 대전로 1376""",36.37636804914269,127.42111334537042,['투명 페트']
127,대전광역시,176,관저다목적체육관,"대전광역시 서구 관저동 1583""",36.29239887187206,127.33643056344674,['투명 페트']
225,대전광역시,299,한민시장주차장,"대전광역시 서구 괴정동 88-20""",36.33523345785246,127.38311109591643,['투명 페트']
264,대전광역시,543,용전동행정복지센터,"대전광역시 동구 계족로 515""",36.35774114614912,127.43238276334026,['투명 페트']
243,대전광역시,518,봉암초등학교(포인트 적립 불가),"대전광역시 유성구 궁동로 21""",36.36405303767368,127.34775292460075,"['캔', '투명 페트']"
128,대전광역시,177,가수원 행정복지센터,"대전광역시 서구 가수원로 105""",36.3035860454738,127.34935752434198,['투명 페트']
597,대전광역시,907,월평1동치안센터 옆,"대전광역시 서구 월평서로 13-1""",36.35482317491506,127.35753544012502,['투명 페트']
135,대전광역시,184,갈마1동행정복지센터,"대전광역시 서구 갈마동 316-3""",36.3508442575242,127.36800038740952,['투명 페트']
316,대전광역시,602,갈마2동행정복지센터,"대전광역시 서구 갈마동 1458""",36.34524966836346,127.3746996107766,['투명 페트']
159,대전광역시,215,세븐일레븐 건양대간호학관,"대전광역시 서구 관저동로 158""",36.30699499788398,127.34462121371035,['투명 페트']
317,대전광역시,603,탄방동행정복지센터,"대전광역시 서구 탄방동 1440""",36.34636954952416,127.39561712968158,['투명 페트']
585,대전광역시,895,도솔마을 작은도서관,"대전광역시 서구 사마5길 21""",36.3183662210691,127.37655028602808,['투명 페트']
584,부산광역시,893,괘내마을행복충전소,"부산광역시 사상구 백양대로646번나길 40""",35.16319675432966,128.98927938652088,['투명 페트']
211,서울특별시,285,영등포 제2스포츠센터,"서울특별시 영등포구 당산동4가 96-2""",37.52641231564154,126.9027341126328,['투명 페트']
11,서울특별시,19,구의3동주민센터,"서울특별시 광진구 강변역로 17 구의3동 복합청사""",37.5380524,127.0920163,"['캔', '투명 페트']"
10,서울특별시,18,광진광장,"서울특별시 광진구 군자동 346-42""",37.547941045783645,127.07322996009736,"['캔', '투명 페트']"
155,서울특별시,211,세븐일레븐 압구정 2점,"서울특별시 강남구 압구정로28길 28""",37.5248057184672,127.0275849008041,['투명 페트']
489,서울특별시,795,중곡문화체육센터,"서울특별시 광진구 중곡동 168-8""",37.567919813318,127.08459986235918,['투명 페트']
212,서울특별시,286,종로타워 1층,"서울특별시 종로구 종로 51""",37.570744325762846,126.98360914667552,"['캔', '투명 페트']"
511,서울특별시,818,신길6동주민센터,"서울특별시 영등포구 대방천로 167""",37.49933152538133,126.90984011281049,['투명 페트']
153,서울특별시,205,세븐일레븐 마로니에공원점,"서울특별시 종로구 대학로 116""",37.5815366512951,127.002340109386,['투명 페트']
152,서울특별시,204,세븐일레븐 장안현대홈타운점,"서울특별시 동대문구 답십리로72길 34""",37.57069763596722,127.0737729384497,['투명 페트']
151,서울특별시,202,세븐일레븐 신림대학스타점,"서울특별시 관악구 호암로24길 6""",37.4699117670036,126.933579707983,['투명 페트']
40,서울특별시,71,대학동주민센터,"서울특별시 관악구 신림로 111 대학동주민센터""",37.4706113,126.9369739,"['캔', '투명 페트']"
519,서울특별시,826,부암동주민센터,"서울특별시 종로구 부암동 265-21""",37.592456211284656,126.9641261027153,['투명 페트']
154,서울특별시,207,세븐일레븐 홍대5번출구점,"서울특별시 마포구 신촌로2안길 2""",37.557590164922864,126.92730893861436,['투명 페트']
126,서울특별시,175,세븐일레븐 이태원중앙점,"서울특별시 용산구 회나무로26길 3""",37.5395346124592,126.991708419033,['투명 페트']
39,서울특별시,62,세븐일레븐 도선카페점,서울특별시 성동구 왕십리로 326,37.5628379,127.0340538,"['캔', '투명 페트']"
231,서울특별시,306,반포1동 주민센터,"서울특별시 서초구 반포동 20-48""",37.50515412697181,127.01345010773294,['투명 페트']
235,서울특별시,310,KB국민카드,"서울특별시 종로구 새문안로3길 30""",37.5726236704147,126.973072139908,"['캔', '투명 페트']"
236,서울특별시,311,종로구청,"서울특별시 종로구 종로1길 36""",37.5734894076694,126.97916541936996,"['캔', '투명 페트']"
548,서울특별시,855,중랑구 환경교육센터,"서울특별시 중랑구 신내동 353-2""",37.61355819622565,127.1006865098768,['투명 페트']
549,서울특별시,856,면목5동주민센터,"서울특별시 중랑구 면목동 175-18""",37.58570894813155,127.07955060411322,['투명 페트']
436,서울특별시,740,월촌중학교,"서울특별시 양천구 목동서로 31""",37.53771340525682,126.88317054901891,"['캔', '투명 페트']"
550,서울특별시,857,대방청소년문화의집,"서울특별시 동작구 여의대방로36길 71""",37.5069655129549,126.9264057518713,"['캔', '투명 페트']"
68,서울특별시,103,소리공원,"서울특별시 송파구 문정동 319-1""",37.482558504171045,127.1208830385275,"['캔', '투명 페트']"
69,서울특별시,104,석촌호수수변무대,"서울특별시 송파구 석촌호수로 191""",37.50676071911722,127.09819020139696,"['캔', '투명 페트']"
70,서울특별시,108,목3동행정복지센터 정문 옆,"서울특별시 양천구 목동중앙남로16나길 55""",37.5447333646598,126.864455859678,"['캔', '투명 페트']"
71,서울특별시,110,강동구민회관,"서울특별시 강동구 상암로 168""",37.54574669110065,127.14118014203883,"['캔', '투명 페트']"
262,서울특별시,540,정신여자고등학교,"서울특별시 송파구 올림픽로4길 16""",37.5087529652041,127.07162518661426,"['캔', '투명 페트']"
215,서울특별시,289,유락종합사회복지관,"서울특별시 중구 신당동 160-2""",37.56515934176784,127.02279607308958,"['캔', '투명 페트']"
490,서울특별시,796,오금동주민센터,"서울특별시 송파구 오금동 50-1""",37.503008500506354,127.12820916536158,"['캔', '투명 페트']"
38,서울특별시,61,세븐일레븐롯데월드몰수족관점,"서울특별시 송파구 올림픽로 300 롯데월드몰 지하 1층 GATE20""",37.5134981,127.1040702,"['캔', '투명 페트']"
36,서울특별시,57,가양레포츠센터,"서울특별시 강서구 가양동 1493""",37.5596943,126.865198,"['캔', '투명 페트']"
488,서울특별시,794,광진구민체육센터,"서울특별시 광진구 광장동 313-3""",37.546068778378384,127.10638941530132,"['캔', '투명 페트']"
540,서울특별시,847,영등포제1스포츠센터,"서울특별시 영등포구 신길동 426-3""",37.5003692811673,126.90610971768376,['투명 페트']
486,서울특별시,792,종로구민회관,"서울특별시 종로구 지봉로5길 7-5""",37.57344077315995,127.01472456572029,['투명 페트']
485,서울특별시,791,올림픽기념국민생활관,"서울특별시 종로구 성균관로 91""",37.590303782598426,126.99901493277574,['투명 페트']
149,서울특별시,200,세븐일레븐 대치3호점,"서울특별시 강남구 삼성로 151""",37.49313550057345,127.0609768628213,['투명 페트']
148,서울특별시,199,세븐일레븐 동부센터점,"서울특별시 광진구 능동로 268""",37.5538530156925,127.078042679432,['투명 페트']
642,서울특별시,960,아차산 숲속놀이터,"서울특별시 광진구 구의동 3-20""",37.55344496203339,127.09948519565172,['투명 페트']
641,서울특별시,959,중곡역 소공원,"서울특별시 광진구 중곡동 30-79""",37.5660252725091,127.08487503360828,['투명 페트']
640,서울특별시,958,구의1동주민센터,"서울특별시 광진구 광나루로36길 56""",37.54232617979952,127.08571095601036,['투명 페트']
180,서울특별시,249,자양종합사회복지관,"서울특별시 광진구 자양번영로 35""",37.5328975121375,127.075364328876,"['캔', '투명 페트']"
146,서울특별시,196,세븐일레븐 쌍문중앙점,"서울특별시 도봉구 우이천로32길 49""",37.64991545854233,127.02492510985007,['투명 페트']
145,서울특별시,194,세븐일레븐 면목엠비스점,"서울특별시 중랑구 상봉로 37""",37.5892832704523,127.093564246396,['투명 페트']
63,서울특별시,96,암사유적지,"서울특별시 강동구 올림픽로 875""",37.5605464139303,127.130257802123,"['캔', '투명 페트']"
64,서울특별시,97,다산동주민센터,"서울특별시 중구 동호로15길 50 다산동주민센터""",37.5542871,127.0082443,"['캔', '투명 페트']"
144,서울특별시,193,세븐일레븐 챌린지스토어점,"서울특별시 송파구 올림픽로 269""",37.5144892393692,127.100621697839,['투명 페트']
143,서울특별시,192,세븐일레븐 답십리위브점,"서울특별시 동대문구 답십리로 130""",37.57284127095628,127.0523797517403,['투명 페트']
639,서울특별시,957,자양한강도서관,"서울특별시 광진구 뚝섬로52길 66""",37.52917699312867,127.07788685942712,"['캔', '투명 페트']"
462,서울특별시,767,영등포다목적배드민턴체육관,"서울특별시 영등포구 도림동 254""",37.506257731519206,126.89840312794556,['투명 페트']
463,서울특별시,768,대림어린이공원,"서울특별시 영등포구 대림로 106""",37.49124633359681,126.9030030569184,['투명 페트']
464,서울특별시,769,중화2동 제2공영주차장,"서울특별시 중랑구 중화동 73-3""",37.5972466531889,127.07535048382104,['투명 페트']
35,서울특별시,56,강서구민회관,"서울특별시 강서구 우장산로 66 강서구민회관""",37.5535715,126.8433474,"['캔', '투명 페트']"
34,서울특별시,55,강서구청,"서울특별시 강서구 화곡로 302""",37.5509646154307,126.849533759513,"['캔', '투명 페트']"
168,서울특별시,224,롯데마트 양평점 3층,"서울특별시 영등포구 선유로 138""",37.52609625965927,126.89157717968,['투명 페트']
37,서울특별시,60,국사봉중학교(포인트 적립 불가),"서울특별시 동작구 양녕로20길 20 국사봉중학교""",37.493623,126.9441019,"['캔', '투명 페트']"
170,서울특별시,226,롯데마트 서초점 지하4층,"서울특별시 서초구 서초대로38길 12""",37.4900696218267,127.00633218032168,['투명 페트']
466,서울특별시,771,난곡재생활력소,"서울특별시 관악구 신림동 646-131""",37.46952011229598,126.9236135597889,['투명 페트']
467,서울특별시,772,성현동자치회관,"서울특별시 관악구 봉천동 1703-6""",37.48722597080704,126.95679864234084,['투명 페트']
492,서울특별시,798,위례동주민센터,"서울특별시 송파구 장지동 882""",37.48104401767678,127.14401712129649,"['캔', '투명 페트']"
136,서울특별시,185,송파구새활용센터,"서울특별시 송파구 문정로 246""",37.49989911076753,127.1420131938712,['투명 페트']
137,서울특별시,186,이마트 명일점,"서울특별시 강동구 고덕로 276""",37.5546046874526,127.155987297642,"['캔', '투명 페트']"
491,서울특별시,797,거여2동주민센터,"서울특별시 송파구 거여동 697-9""",37.49344704831605,127.1471336616652,"['캔', '투명 페트']"
172,서울특별시,228,롯데마트 월드타워점 지하 2층,"서울특별시 송파구 올림픽로 300""",37.5135401296735,127.104147193463,['투명 페트']
426,서울특별시,727,번2동주민센터,"서울특별시 강북구 한천로 897""",37.63229474601691,127.03884707049576,['투명 페트']
29,서울특별시,47,낙성대동주민센터,"서울특별시 관악구 낙성대로4가길 5 낙성대동주민센터""",37.4762949,126.9583967,"['캔', '투명 페트']"
423,서울특별시,724,삼각산동주민센터,"서울특별시 강북구 삼양로19길 25""",37.6151805250552,127.020948144694,['투명 페트']
358,서울특별시,648,동작청소년문화의집,"서울특별시 동작구 상도로15바길 5""",37.50411579064342,126.93350813850262,"['캔', '투명 페트']"
359,서울특별시,649,대방동주민센터,"서울특별시 동작구 여의대방로44길 20""",37.5081142475191,126.92633110794682,"['캔', '투명 페트']"
360,서울특별시,650,사당종합체육관,"서울특별시 동작구 사당로27길 232""",37.49244691560986,126.9700823270174,"['캔', '투명 페트']"
361,서울특별시,651,상도 어울마당,"서울특별시 동작구 성대로 180""",37.49926531448162,126.94042780115744,"['캔', '투명 페트']"
563,서울특별시,870,마곡레포츠센터,"서울특별시 강서구 양천로 251""",37.57302821474351,126.83121892586334,"['캔', '투명 페트']"
562,서울특별시,869,상도3동 빙수골공원,"서울특별시 동작구 상도동 292-56""",37.4967312063293,126.93203045004968,"['캔', '투명 페트']"
561,서울특별시,868,목동근린공원,"서울특별시 양천구 목동 560""",37.54695017114461,126.87799601857948,"['캔', '투명 페트']"
560,서울특별시,867,목4동시장고객지원센터,"서울특별시 양천구 목동중앙남로7길 8""",37.53758273511978,126.86616769508475,"['캔', '투명 페트']"
559,서울특별시,866,신정3동주민센터,"서울특별시 양천구 신정동 1263""",37.51520658775184,126.8549105549589,"['캔', '투명 페트']"
558,서울특별시,865,신월문화체육센터,"서울특별시 양천구 신월동 987""",37.519987336886565,126.83502617218068,"['캔', '투명 페트']"
557,서울특별시,864,곰달래꿈마을,"서울특별시 양천구 신월동 227-2""",37.52986242257901,126.83672689910496,"['캔', '투명 페트']"
369,서울특별시,659,세븐일레븐 한양대정보관점,"서울특별시 성동구 왕십리로 222""",37.556615645882765,127.04597739357776,['투명 페트']
556,서울특별시,863,신월1동주민센터,"서울특별시 양천구 신월동 135-18""",37.53277419951312,126.83141433420565,"['캔', '투명 페트']"
555,서울특별시,862,목동보건지소,"서울특별시 양천구 목동 717-43""",37.54015607738499,126.86704283823484,"['캔', '투명 페트']"
591,서울특별시,901,남가좌1동주민센터,"서울특별시 서대문구 남가좌동 385-3""",37.57332888770126,126.91984845427817,['투명 페트']
592,서울특별시,902,서대문구 리앤업사이클플라자,"서울특별시 서대문구 홍은동 426-3""",37.58262391945621,126.9367923559844,['투명 페트']
425,서울특별시,726,미아동주민센터,"서울특별시 강북구 미아동 197-1""",37.626907913569376,127.0269468651311,['투명 페트']
357,서울특별시,647,신대방2동주민센터,"서울특별시 동작구 신대방동 723""",37.49841164906995,126.92470935775606,"['캔', '투명 페트']"
356,서울특별시,646,상도1동주민센터,"서울특별시 동작구 상도동 437""",37.498041094311375,126.95295594781427,"['캔', '투명 페트']"
355,서울특별시,645,남성역 2번 출구,"서울특별시 동작구 사당동 250-2""",37.48448903159469,126.97115962975155,"['캔', '투명 페트']"
354,서울특별시,644,사당3동주민센터,"서울특별시 동작구 사당동 256-1""",37.484647237776045,126.97341807172796,"['캔', '투명 페트']"
575,서울특별시,884,관악청년청,"서울특별시 관악구 봉천동 912-26""",37.4821959892197,126.9456394164233,['투명 페트']
586,서울특별시,896,연희동주민센터,"서울특별시 서대문구 연희로 189""",37.57381587421904,126.93526309578203,['투명 페트']
571,서울특별시,879,성내1동주민센터,"서울특별시 강동구 성내로 13""",37.530389409387645,127.12237863258537,['투명 페트']
570,서울특별시,878,천호청소년문화의집,"서울특별시 강동구 천호동 308-9""",37.54518162925066,127.12868306536748,['투명 페트']
569,서울특별시,877,상일1동주민센터,"서울특별시 강동구 상일동 513-2""",37.550575923629175,127.1684163966396,['투명 페트']
568,서울특별시,876,길동제2자치회관,"서울특별시 강동구 명일로 229-1""",37.539237071751685,127.14628162593294,['투명 페트']
587,서울특별시,897,충현동주민센터,"서울특별시 서대문구 북아현로22길 38""",37.56482401410726,126.95476742953716,['투명 페트']
343,서울특별시,633,샘터어린이공원,"서울특별시 중랑구 면목동 656""",37.57309691972189,127.08334919802384,['투명 페트']
20,서울특별시,37,망우역,"서울특별시 중랑구 상봉동 500-1""",37.59844863797278,127.092379924489,"['캔', '투명 페트']"
344,서울특별시,634,면목2동 주민센터,"서울특별시 중랑구 면목동 180-8""",37.58967587857626,127.07908777233123,['투명 페트']
588,서울특별시,898,중앙소공원,"서울특별시 서대문구 홍은동 9-498""",37.598772724283485,126.9475675370066,['투명 페트']
589,서울특별시,899,홍제3동주민센터,"서울특별시 서대문구 세검정로4길 32""",37.59376191825137,126.94977057171717,['투명 페트']
590,서울특별시,900,남가좌2동주민센터,"서울특별시 서대문구 남가좌동 319-23""",37.5785144830211,126.92381367487594,['투명 페트']
565,서울특별시,872,화곡4동주민센터,"서울특별시 강서구 곰달래로57가길 26""",37.53470669016544,126.86066848011164,['투명 페트']
564,서울특별시,871,곰달래문화복지센터,"서울특별시 강서구 강서로5길 50""",37.52906336214981,126.84901209687676,['투명 페트']
351,서울특별시,641,컵밥거리,"서울특별시 동작구 노량진로 170""",37.51338464495574,126.94634070626589,"['캔', '투명 페트']"
352,서울특별시,642,흑석동주민센터,"서울특별시 동작구 흑석동 335-2""",37.505870985188494,126.9666359497881,"['캔', '투명 페트']"
353,서울특별시,643,사당2동주민센터,"서울특별시 동작구 사당동 91-126""",37.4887637747126,126.97933031416004,"['캔', '투명 페트']"
345,서울특별시,635,신내1동 주민센터,"서울특별시 중랑구 신내동 448-1""",37.60601346407447,127.09944757820324,['투명 페트']
15,서울특별시,25,성일초등학교,"서울특별시 강동구 성내로15길 33 성일스포츠센터 앞""",37.5286373,127.1284635,"['캔', '투명 페트']"
156,서울특별시,212,세븐일레븐 역삼 14호점,"서울특별시 강남구 논현로105길 53""",37.5051308145897,127.029984371826,['투명 페트']
606,서울특별시,919,여의동주민센터,"서울특별시 영등포구 여의도동 5-8""",37.51757519386816,126.934675433513,['투명 페트']
105,서울특별시,152,신원동주민센터,"서울특별시 관악구 신원로3길 13""",37.48157075665021,126.9273283767166,"['캔', '투명 페트']"
14,서울특별시,24,강동구청 성안별관,"서울특별시 강동구 성내로3가길 19""",37.530683282893,127.123965277528,"['캔', '투명 페트']"
270,서울특별시,550,신림동 행정복지센터,"서울특별시 관악구 신림동길 14""",37.48741411612327,126.92711749349156,['투명 페트']
269,서울특별시,549,신사동 행정복지센터,"서울특별시 관악구 조원로 142""",37.48540342305692,126.91803729273954,['투명 페트']
552,서울특별시,859,사당5동주민센터 ,"서울특별시 동작구 사당동 산 32-56""",37.48558491391103,126.9669756967508,"['캔', '투명 페트']"
551,서울특별시,858,도림천산책길 ,"서울특별시 동작구 신대방동 702-2""",37.48531857313488,126.90406790173904,"['캔', '투명 페트']"
76,서울특별시,116,상도3동주민센터,"서울특별시 동작구 성대로2길 11""",37.4992040702905,126.931341762113,"['캔', '투명 페트']"
157,서울특별시,213,세븐일레븐 성북두산점,"서울특별시 성북구 화랑로48길 16""",37.61269453385915,127.06877829770444,['투명 페트']
413,서울특별시,711,사당역 7번출구 앞,"서울특별시 동작구 사당동 1043-14""",37.4768684276705,126.98063372044562,"['캔', '투명 페트']"
268,서울특별시,548,미성 경로당,"서울특별시 관악구 난곡로58길 11""",37.480056565652966,126.91572823937652,['투명 페트']
267,서울특별시,547,삼성동 자치회관,"서울특별시 관악구 호암로 520""",37.46412356610055,126.93181130100886,['투명 페트']
266,서울특별시,546,밤골 경로당,"서울특별시 관악구 인헌3가길 8""",37.47392596799778,126.9673821558856,['투명 페트']
265,서울특별시,545,행운동 행정복지센터,"서울특별시 관악구 봉천동 1670-7""",37.48062394863239,126.95712183919466,['투명 페트']
74,서울특별시,114,노량진2동주민센터,"서울특별시 동작구 장승배기로19길 48""",37.5085057900719,126.937359341221,"['캔', '투명 페트']"
421,서울특별시,722,강북구청,"서울특별시 강북구 도봉로89길 13""",37.63958731640999,127.0256853068392,['투명 페트']
422,서울특별시,723,강북문화예술회관,"서울특별시 강북구 삼각산로 85""",37.64052190696967,127.01307508407244,['투명 페트']
75,서울특별시,115,상도4동주민센터,"서울특별시 동작구 양녕로27길 44""",37.49937527396049,126.941401972639,"['캔', '투명 페트']"
553,서울특별시,860,상도1동 주민센터 정문 옆,"서울특별시 동작구 상도동 437""",37.49819887031303,126.95320746717874,"['캔', '투명 페트']"
271,서울특별시,551,은천동 행정복지센터,"서울특별시 관악구 봉천로33나길 30""",37.485375065557456,126.94250514170167,['투명 페트']
274,서울특별시,556,북한산 국립공원 정릉 사무소,"서울특별시 성북구 정릉동 829-5""",37.61826148174032,126.99733819023726,"['캔', '투명 페트']"
554,서울특별시,861,절고개공원,"서울특별시 동작구 상도1동 508-2""",37.50712729312206,126.95185600051563,"['캔', '투명 페트']"
386,서울특별시,680,양평2동행정복지센터,"서울특별시 영등포구 양평동4가 96""",37.53618095206761,126.89432612740916,['투명 페트']
387,서울특별시,681,시립문래청소년센터,"서울특별시 영등포구 문래동3가 73""",37.51868557686548,126.89412739680448,['투명 페트']
388,서울특별시,682,신길4동주민센터,"서울특별시 영등포구 신길동 209-102""",37.5083675665045,126.91144095255513,['투명 페트']
94,서울특별시,140,창5동주민센터,"서울특별시 도봉구 도봉로136나길 20""",37.656304313928885,127.04358528103484,"['캔', '투명 페트']"
402,서울특별시,697,상명대부속여고(포인트 적립 불가),"서울특별시 종로구 홍지문2길 20""",37.60326229319497,126.95388066754424,"['캔', '투명 페트']"
391,서울특별시,685,필동주민센터,"서울특별시 중구 퇴계로36길 42""",37.56017669413463,126.99551805172806,['투명 페트']
392,서울특별시,686,쓰레기연구소 새롬,"서울특별시 중구 퇴계로52길 12""",37.56277834993636,127.00367849454618,['투명 페트']
395,서울특별시,689,신월청소년문화센터,"서울특별시 양천구 신월동 150-3""",37.53533605680068,126.82573445451187,"['캔', '투명 페트']"
390,서울특별시,684,리앤업사이클센터,"서울특별시 강동구 동남로 960""",37.559274813790935,127.15714919552384,['투명 페트']
397,서울특별시,691,양서중학교 담벼락,"서울특별시 양천구 신월동 790""",37.533632086348256,126.8296247870845,"['캔', '투명 페트']"
396,서울특별시,690,신월3동행정복지센터,"서울특별시 양천구 신월동 167-5""",37.533561363800246,126.82900550565778,"['캔', '투명 페트']"
104,서울특별시,151,중앙동주민센터,"서울특별시 관악구 양녕로6다길 7""",37.4841881538571,126.949789748222,"['캔', '투명 페트']"
228,울산광역시,302,대송동 주민센터,"울산광역시 동구 대송5길 10""",35.50324564245772,129.41841630727183,"['캔', '투명 페트']"
142,울산광역시,191,범서초등학교(포인트 적립 불가),"울산광역시 울주군 범서읍 천상1길 7""",35.56465077770222,129.23069535362455,"['캔', '투명 페트']"
524,인천광역시,831,계산3동행정복지센터,"인천광역시 계양구 계산동 480-7""",37.53775609454397,126.7293365837914,['투명 페트']
523,인천광역시,830,방축공영주차장,"인천광역시 계양구 방축동 113""",37.550611251913885,126.73943258275364,['투명 페트']
538,인천광역시,845,녹청자박물관 앞,"인천광역시 서구 경서동 737-9""",37.55842664077727,126.65561444263707,['투명 페트']
537,인천광역시,844,가정1동행정복지센터,"인천광역시 서구 가정동 490-19""",37.521263774991546,126.67585019920874,['투명 페트']
619,인천광역시,937,남촌도림동행정복지센터,"인천광역시 남동구 남촌동로 32""",37.43234338939438,126.71515535048914,['투명 페트']
616,인천광역시,934,구월2동행정복지센터,"인천광역시 남동구 구월동 23-1""",37.45622689074036,126.7132648975749,['투명 페트']
618,인천광역시,936,남동구노인복지관,"인천광역시 남동구 소래로 610""",37.44427082414611,126.73263161840887,['투명 페트']
615,인천광역시,933,간석4동행정복지센터,"인천광역시 남동구 벽돌말로19번길 7""",37.466467175813534,126.70067567016926,['투명 페트']
621,인천광역시,939,홈플러스 인천논현점(B3),"인천광역시 남동구 청능대로 596""",37.40048735803597,126.72536994190342,['투명 페트']
620,인천광역시,938,만수2동행정복지센터,"인천광역시 남동구 만수서로 46""",37.46147913394383,126.73119985419272,['투명 페트']
525,인천광역시,832,거여목체육공원,"인천광역시 계양구 서운동 215""",37.53393605361497,126.75631743956536,['투명 페트']
617,인천광역시,935,구월3동행정복지센터,"인천광역시 남동구 문화서로 84""",37.45273500843664,126.69683127918276,['투명 페트']
0,인천광역시,3,업사이클에코센터,"인천광역시 미추홀구 매소홀로290번길 7""",37.4432153,126.6553661,"['캔', '투명 페트']"
173,인천광역시,229,롯데마트 삼산점 지하1층,"인천광역시 부평구 길주로 623""",37.50770392319799,126.73161100859458,['투명 페트']
138,인천광역시,187,창업·벤처 녹색융합클러스터(사내 전용),"인천광역시 서구 정서진로 410""",37.56866075550926,126.64698674809536,"['캔', '투명 페트']"
106,인천광역시,153,계양고등학교(포인트 적립 불가),"인천광역시 계양구 계양문화로 177""",37.5419168272076,126.743844678586,"['캔', '투명 페트']"
288,인천광역시,573,오류왕길동행정복지센터,"인천광역시 서구 왕길동 692-5""",37.59697514836457,126.63744653831472,['투명 페트']
289,인천광역시,574,검단동행정복지센터,"인천광역시 서구 검단로529번길 14""",37.60496437366952,126.6616286374612,['투명 페트']
290,인천광역시,575,검단동노인복지관,"인천광역시 서구 검단로502번길 15-1""",37.60214232468423,126.660944971803,['투명 페트']
171,인천광역시,227,롯데마트 부평점 1층,"인천광역시 부평구 마장로 296""",37.50499825799793,126.70409293323978,['투명 페트']
169,인천광역시,225,롯데마트 검단점 1층,"인천광역시 서구 원당대로 581""",37.5945702184535,126.664496884957,['투명 페트']
161,인천광역시,217,롯데마트 연수점 1층,"인천광역시 연수구 청능대로 87""",37.415082706966125,126.6751674409779,['투명 페트']
291,인천광역시,576,당하동행정복지센터,"인천광역시 서구 당하동 1097-4""",37.59207593280658,126.6745072752199,['투명 페트']
292,인천광역시,577,인천서구국민체육센터 ,"인천광역시 서구 검암동 496""",37.56643944177348,126.67822677386314,['투명 페트']
380,인천광역시,671,이마트 계양점,"인천광역시 계양구 작전동 941""",37.53077194346032,126.73668170626765,['투명 페트']
500,인천광역시,806,인천외국어고등학교(포인트 적립 불가),"인천광역시 부평구 원적로 262""",37.50289535927369,126.69472577485756,"['캔', '투명 페트']"
293,인천광역시,578,검암경서동 행정복지센터,"인천광역시 서구 승학로 480""",37.56437913577151,126.67356386715706,['투명 페트']
499,인천광역시,805,동산중학교,"인천광역시 동구 동산로 58""",37.4735288190937,126.64758502192672,"['캔', '투명 페트']"
295,인천광역시,580,연희동행정복지센터,"인천광역시 서구 연희동 723""",37.54909613450352,126.67852767056696,['투명 페트']
296,인천광역시,581,석남2동행정복지센터,"인천광역시 서구 거북로 116""",37.50253323489809,126.67467020670443,['투명 페트']
297,인천광역시,582,석남1동행정복지센터,"인천광역시 서구 석남동 465-3""",37.51116456822883,126.67457619448815,['투명 페트']
298,인천광역시,583,신현원창동 행정복지센터,"인천광역시 서구 신현동 294""",37.51469006721946,126.6722534162482,['투명 페트']
299,인천광역시,584,인천서구청소년센터,"인천광역시 서구 원창로 92""",37.517518365640434,126.65922144693242,['투명 페트']
210,인천광역시,284,시민협력플랫폼,"인천광역시 미추홀구 구월남로 20""",37.45468282418354,126.69223476739752,"['캔', '투명 페트']"
301,인천광역시,586,청라3동행정복지센터,"인천광역시 서구 청라한내로 89""",37.533453993169815,126.6269183232643,['투명 페트']
294,인천광역시,579,인천서구청,"인천광역시 서구 서곶로 307""",37.54509898514062,126.67642596627168,['투명 페트']
300,인천광역시,585,청라문화센터,"인천광역시 서구 청라동 106-2""",37.52469196300186,126.6341709330132,['투명 페트']
303,인천광역시,588,검단복지회관,"인천광역시 서구 완정로92번길 18""",37.60071999105664,126.66611523441192,['투명 페트']
160,인천광역시,216,롯데마트 계양점 지하2층,"인천광역시 계양구 장제로 822""",37.540891012389686,126.73605773826154,['투명 페트']
302,인천광역시,587,청라1동행정복지센터,"인천광역시 서구 청라동 165-5""",37.5325383483781,126.65391764772131,['투명 페트']
209,인천광역시,283,용현5동 행정복지센터,"인천광역시 미추홀구 토금북로 60""",37.45256784141033,126.64042483352392,"['캔', '투명 페트']"
245,전라남도,520,한전KDN 본관 2층 강당 앞,"전라남도 나주시 빛가람로 661""",35.02225363129143,126.78421553810824,"['캔', '투명 페트']"
238,전라남도,314,청춘공작소,"전라남도 곡성군 곡성읍 읍내리 98-2""",35.282454268423706,127.3017279567209,['캔']
237,전라남도,313,대명해피니스,"전라남도 곡성군 곡성읍 학정리 526-2""",35.28619044837686,127.28874571662746,['투명 페트']
242,전라남도,517,한양파크빌,"전라남도 곡성군 곡성읍 학정리 535-19""",35.28480263082249,127.29052707041345,['투명 페트']
251,전라남도,526,문화건강센터 수영장 주차장 입구 ,"전라남도 순천시 환선로 133""",34.967477601325335,127.48662653345131,"['캔', '투명 페트']"
46,전라남도,78,소호요트경기장,전라남도 여수시 소호동,34.7387836,127.650754,"['캔', '투명 페트']"
253,전라남도,528,풍덕공원 왕가네 가게 앞 ,"전라남도 순천시 풍덕동 1287""",34.93990259367872,127.49819516040812,"['캔', '투명 페트']"
254,전라남도,529,오천동 공용화장실 앞 ,"전라남도 순천시 오천동 1025""",34.93504652566285,127.49374927218172,"['캔', '투명 페트']"
255,전라남도,530,연향 제1근린공원 화장실 근처 ,"전라남도 순천시 연향번영길 93""",34.94928081220288,127.51721829787584,"['캔', '투명 페트']"
256,전라남도,531,신대스포츠센터 주차장 앞 보도 ,"전라남도 순천시 해룡면 매안로 138""",34.93659893727812,127.55043281779837,"['캔', '투명 페트']"
45,전라남도,77,선원공원,"전라남도 여수시 무선 7길""",34.773792,127.6510397,"['캔', '투명 페트']"
98,전라남도,145,순천시 재활용도움센터,"전라남도 순천시 백연길 111""",34.9521043667346,127.533271804087,"['캔', '투명 페트']"
19,전라남도,30,거북선공원,"전라남도 여수시 선소로 93 전기차충전소 뒷편""",34.7617408,127.6676801,"['캔', '투명 페트']"
18,전라남도,29,여수시청,"전라남도 여수시 시청동1길 30""",34.759437,127.6633282,"['캔', '투명 페트']"
16,전라남도,27,해양공원,"전라남도 여수시 종화동 526-7""",34.73879483707378,127.74533819188586,"['캔', '투명 페트']"
252,전라남도,527,조곡동 행정복지센터 입구 ,"전라남도 순천시 자경1길 13""",34.95002791866786,127.4986039935253,"['캔', '투명 페트']"
96,전라남도,142,순천만 국가정원 지구동문,"전라남도 순천시 국가정원1호길 152-55""",34.9290883462236,127.509372763127,"['캔', '투명 페트']"
365,전라남도,655,목포 어울림도서관 인도,"전라남도 목포시 용해동 1006""",34.81708526580876,126.39569486133306,['투명 페트']
362,전라남도,652,평화광장 평화매점 앞,"전라남도 목포시 상동 1157""",34.79593644667498,126.43223086709756,['투명 페트']
50,전라남도,82,미평클린하우스,"전라남도 여수시 미평11길 6""",34.769304,127.705117,"['캔', '투명 페트']"
49,전라남도,81,서강동주민센터,"전라남도 여수시 서교1길 28 서강동주민자치센터""",34.7411441,127.7258934,"['캔', '투명 페트']"
501,전라남도,807,라온초등학교,"전라남도 나주시 그린로 93""",35.014307422958844,126.77889800252174,"['캔', '투명 페트']"
502,전라남도,809,여수시청 구보건소,"전라남도 여수시 시청동1길 23""",34.75882454337672,127.66340322704144,"['캔', '투명 페트']"
503,전라남도,810,성암맨션,"전라남도 곡성군 옥과면 죽림2길 45""",35.275722241406754,127.14116145872616,['투명 페트']
504,전라남도,811,옥과해광샹그릴라,"전라남도 곡성군 옥과면 죽림리 632-13""",35.27606220829941,127.14140935404777,['투명 페트']
41,전라남도,72,드림스타트센터,"전라남도 광양시 정수2길 47 광영동사무소""",34.9628962,127.7219827,"['캔', '투명 페트']"
42,전라남도,73,백운쇼핑센터,"전라남도 광양시 폭포사랑길 99""",34.9402886,127.7322355,"['캔', '투명 페트']"
43,전라남도,74,중마동주민센터,"전라남도 광양시 중마중앙로 119 중마동사무소""",34.9410142,127.6976752,"['캔', '투명 페트']"
44,전라남도,75,광양읍사무소,"전라남도 광양시 광양읍 남등길 6 광양읍사무소""",34.9733971,127.5810568,"['캔', '투명 페트']"
505,전라남도,812,옥과면 재활용동네마당,"전라남도 곡성군 옥과면 옥과리 128-1""",35.276196242579246,127.13452898809604,['투명 페트']
506,전라남도,813,옥과면 행정복지센터,"전라남도 곡성군 옥과면 천변로 135""",35.27389878407519,127.1356847463604,['투명 페트']
48,전라남도,80,웅천친수공원,전라남도 여수시 예울마루로 37-40,34.747301,127.6680462,"['캔', '투명 페트']"
47,전라남도,79,미평공원,전라남도 여수시 미평동,34.7679181,127.7033991,"['캔', '투명 페트']"
512,전라남도,819,광영동주민센터,"전라남도 광양시 광영동 1087""",34.96300507138321,127.72540994657514,['투명 페트']
178,전라남도,246,함평 영화학교(포인트 적립 불가),"전라남도 함평군 함평읍 한나리길 10-25""",35.1040091609172,126.49435857826,"['캔', '투명 페트']"
478,전라남도,784,마동근린체육공원,"전라남도 광양시 중동 674-4""",34.951867163837235,127.69247167222208,"['캔', '투명 페트']"
67,전라남도,102,오동도,전라남도 여수시 오동도로 242,34.7452359,127.7660166,"['캔', '투명 페트']"
470,전라남도,776,골약동행정복지센터,"전라남도 광양시 성황동 1861""",34.93725826069644,127.67889111792437,"['캔', '투명 페트']"
363,전라남도,653,부흥동 행정복지센터,"전라남도 목포시 옥암동 1022""",34.804354243596485,126.4343806424173,['투명 페트']
364,전라남도,654,옥암동 행정복지센터,"전라남도 목포시 삼향천로 118""",34.81029955654408,126.42968154773511,['투명 페트']
366,전라남도,656,원산동 행정복지센터,"전라남도 목포시 연산동 1277""",34.81158565074724,126.38112552745262,['투명 페트']
367,전라남도,657,팔레스마트 옆 공원,"전라남도 목포시 산정동 1198-5""",34.80827656823731,126.3712652897873,['투명 페트']
368,전라남도,658,유달동행정복지센터,"전라남도 목포시 유동로 19""",34.78338982474358,126.38020268473772,['투명 페트']
95,전라남도,141,순천업사이클센터더새롬,"전라남도 순천시 팔마1길 9-19""",34.9324564123273,127.512681515524,"['캔', '투명 페트']"
371,전라남도,661,하당동 행정복지센터,"전라남도 목포시 백년대로337번길 35""",34.80856369897245,126.42095051761528,['투명 페트']
370,전라남도,660,동명동 행정복지센터,"전라남도 목포시 자유로20번길 27""",34.79073084912724,126.39209846557117,['투명 페트']
78,전라남도,120,차동공원,"전라남도 여수시 소라면 죽림리 1140""",34.76522118451785,127.63744135891804,"['캔', '투명 페트']"
77,전라남도,119,수변공원,"전라남도 여수시 어항단지로 147""",34.72853199496777,127.72335805574248,"['캔', '투명 페트']"
435,전라남도,736,완도군생활문화센터,"전라남도 완도군 완도읍 개포로 111""",34.31634997854813,126.7420606560065,['투명 페트']
437,전라남도,742,신성복지회관,"전라남도 강진군 강진읍 서성리 40-3""",34.63723470365785,126.76528344270712,['투명 페트']
438,전라남도,743,사의재 버스주차장,"전라남도 강진군 강진읍 동성리 300-1""",34.64420631131579,126.77188997702297,['투명 페트']
208,전라남도,282,광양시청 제2청사,"전라남도 광양시 광양읍 인덕로 1100""",34.98077530681284,127.5823235756621,"['캔', '투명 페트']"
17,전라남도,28,이순신광장,"전라남도 여수시 이순신광장로""",34.7392178,127.7362481,"['캔', '투명 페트']"
234,전라북도,309,LH전북본부,"전라북도 전주시 완산구 홍산로 158""",35.8074453051427,127.104940809324,['투명 페트']
232,전라북도,307,부안여자고등학교,"전라북도 부안군 부안읍 교동1길 54""",35.7153896865106,126.735395215436,"['캔', '투명 페트']"
179,전라북도,247,영선중학교(포인트 적립 불가),"전라북도 고창군 무장면 왕제산로 713""",35.4140991032081,126.557458010409,"['캔', '투명 페트']"
314,전라북도,600,마이산남부관광안내소,"전라북도 진안군 마령면 마이산남로 175""",35.75642357368066,127.39318175402596,['투명 페트']
304,전라북도,589,모항해수욕장,"전라북도 부안군 변산면 도청리 171-5""",35.582653377352365,126.508127038435,['투명 페트']
508,전라북도,815,원광중학교,"전라북도 익산시 무왕로31길 154""",35.97454323444348,127.00015522328036,"['캔', '투명 페트']"
54,전라북도,87,고창실내체육관,"전라북도 고창군 고창읍 55-2""",35.4354939,126.7067707,"['캔', '투명 페트']"
342,전라북도,631,김제노인종합복지관,"전라북도 김제시 하동1길 79""",35.81473739129699,126.89503355181898,['투명 페트']
341,전라북도,630,김제시청소년종합센터,"전라북도 김제시 도작로 224-32""",35.81460689210736,126.90054967262182,['투명 페트']
340,전라북도,629,교월동행정복지센터,"전라북도 김제시 옥산동 275""",35.79481324931486,126.87881747126558,['투명 페트']
339,전라북도,628,신풍동행정복지센터,"전라북도 김제시 중앙10길 11""",35.79610616291717,126.89779050673413,['투명 페트']
338,전라북도,627,요촌동행정복지센터,"전라북도 김제시 요촌중길 50""",35.804942024211776,126.89147838099514,['투명 페트']
337,전라북도,626,검산동행정복지센터,"전라북도 김제시 검산동 1057-11""",35.80323318760648,126.90358972333068,['투명 페트']
600,전라북도,910,고창군여성회관,"전라북도 고창군 고창읍 월곡리 619""",35.43794547166223,126.71264903904898,"['캔', '투명 페트']"
574,전라북도,883,부안상원아파트,"전라북도 부안군 부안읍 상원길 19""",35.73074784844702,126.73912415342552,['투명 페트']
332,전라북도,621,고창 전통시장,"전라북도 고창군 고창읍 읍내리 371-4""",35.432227307406514,126.69905240279282,['투명 페트']
331,전라북도,620,고창 스포츠타운,"전라북도 고창군 고창읍 월암리 123-1""",35.430130184615514,126.72683025296166,['투명 페트']
330,전라북도,619,선운산 버스정류장,"전라북도 고창군 아산면 삼인리 392-1""",35.502806219223466,126.5869756624007,['투명 페트']
329,전라북도,618,구시포여름치안센터,"전라북도 고창군 상하면 진암구시포로 545""",35.44545444470023,126.43568301567404,['투명 페트']
573,전라북도,882,변산송림아파트,"전라북도 부안군 변산면 지서로 80""",35.66477690713523,126.52870732131036,['투명 페트']
307,전라북도,592,육아종합지원센터,"전라북도 익산시 영등동 814""",35.96268719151686,126.97548670268128,['투명 페트']
308,전라북도,593,배산체육공원,"전라북도 익산시 동서로 21""",35.959995835676835,126.94014746245831,['투명 페트']
309,전라북도,594,혁신도시민원센터,"전라북도 완주군 이서면 갈산로 40""",35.836528842936666,127.05599649540687,['투명 페트']
311,전라북도,596,고향마을아파트,"전라북도 진안군 진안읍 군상리 200-1""",35.793768207531535,127.43852673272652,['투명 페트']
328,전라북도,617,선운산 공중화장실,"전라북도 고창군 아산면 삼인리 287-19""",35.503161921309484,126.58622709239228,['투명 페트']
313,전라북도,599,대아월랑아파트,"전라북도 진안군 진안읍 군하리 454-50""",35.78762954560218,127.42054335016704,['투명 페트']
312,전라북도,598,군상주공2차아파트,"전라북도 진안군 진안읍 군상리 790-2""",35.79694874486978,127.42624542004442,['투명 페트']
306,전라북도,591,중앙체육공원,"전라북도 익산시 하나로 322""",35.949753832053446,126.9860508960308,['투명 페트']
305,전라북도,590,부안해뜰마루,"전라북도 부안군 부안읍 별천지로 3""",35.72581208029965,126.74165198899054,['투명 페트']
327,전라북도,616,고창 나들목공원,"전라북도 고창군 고창읍 석교리 7""",35.44130085823885,126.69797783863118,['투명 페트']
315,전라북도,601,진안만남의광장,"전라북도 진안군 진안읍 진무로 1054-6""",35.78894472562244,127.42585147604883,['투명 페트']
310,전북특별자치도,595,발효테마파크 테라피센터,"전북특별자치도 순창군 순창읍 장류로 55""",35.368007965468394,127.11298989709252,['투명 페트']
33,제주특별자치도,51,제주시 성판악 등산로 클린하우스,"제주특별자치도 제주시 조천읍 516로 1865""",33.384503474730415,126.61929057380092,['투명 페트']
32,제주특별자치도,50,하나로마트노형점,"제주특별자치도 제주시 월광로 77""",33.48766119327324,126.46767812498987,['투명 페트']
134,제주특별자치도,183,제주청년몰,"제주특별자치도 제주시 동문로4길 9""",33.5120876972929,126.528240434782,['투명 페트']
649,제주특별자치도,967,제주대학교 학생회관 2층 출입구 방향,"제주특별자치도 제주시 제주대학로 102""",33.45479482958545,126.56059498719536,['투명 페트']
88,제주특별자치도,132,조천읍사무소,"제주특별자치도 제주시 조천읍 신북로 194""",33.53440130090102,126.63413223748915,['투명 페트']
87,제주특별자치도,131,남원읍사무소,"제주특별자치도 서귀포시 남원읍 태위로 695""",33.279884789306365,126.72066566768896,['투명 페트']
12,제주특별자치도,20,사려니숲길-자판기옆,"제주특별자치도 서귀포시 표선면 가시리 산 158""",33.395096115401486,126.68473845492254,['투명 페트']
13,제주특별자치도,22,사려니숲길-화장실옆,"제주특별자치도 서귀포시 표선면 가시리 산 158-4""",33.3951713343846,126.685067629425,['투명 페트']
650,제주특별자치도,968,제주대학교 학생회관 2층 서점 앞,"제주특별자치도 제주시 제주대학로 102""",33.454848543423026,126.56048715682132,['투명 페트']
31,제주특별자치도,49,관음사 야영장 클린하우스 안,"제주특별자치도 제주시 산록북로 588""",33.421520407832126,126.5496963564078,['투명 페트']
30,제주특별자치도,48,하나로마트일도점,"제주특별자치도 제주시 남광로 206""",33.503761567786505,126.55268786362696,['투명 페트']
483,충청남도,789,모종캐슬어울림,"충청남도 아산시 모종로22번길 7""",36.78378427792959,127.02159907728893,['무색 PP']
177,충청남도,235,배방읍행정복지센터,"충청남도 아산시 배방읍 공수리 1672""",36.77361832355973,127.0541809839442,['무색 PP']
176,충청남도,233,아산시중앙도서관,"충청남도 아산시 용화동 1391""",36.770334660100765,127.00627249501368,['무색 PP']
484,충청남도,790,탕정삼성트라팰리스,"충청남도 아산시 탕정면 탕정면로 37""",36.801155325632806,127.0610216434242,['무색 PP']
493,충청남도,799,한마음공원,"충청남도 당진시 읍내동 1487""",36.90025779877409,126.6295018606044,['투명 페트']
494,충청남도,800,당진교육문화스포츠센터,"충청남도 당진시 읍내동 232-85""",36.89383020491944,126.63222545008948,['투명 페트']
277,충청남도,560,당진종합버스터미널,"충청남도 당진시 밤절로 149""",36.90269660546839,126.64620526944248,['투명 페트']
9,충청남도,13,어름수변공원,"충청남도 당진시 대덕동 1809""",36.884132188163385,126.64256395051478,"['캔', '투명 페트']"
276,충청남도,559,당진어시장,"충청남도 당진시 당진시장길 100""",36.89000459817276,126.62989918265622,['투명 페트']
